% program   : RTKLIB ver.2.4.3
% inp file  : F:\GNSSdata\GNSS Receiver\20250117\1\919947202517q.obs
% inp file  : F:\GNSSdata\GNSS Receiver\20250117\1\BRD400DLR_S_20250170000_01D_MN.nav
% obs start : 2025/01/17 08:49:39.0 GPST (week2349 463779.0s)
% obs end   : 2025/01/17 08:57:33.0 GPST (week2349 464253.0s)
% pos mode  : Single
% elev mask : 10.0 deg
% ionos opt : Broadcast
% tropo opt : Saastamoinen
% ephemeris : Broadcast
% navi sys  : GPS GLONASS Galileo BDS
%
% (lat/lon/height=WGS84/geodetic,Q=1:fix,2:float,3:sbas,4:dgps,5:single,6:ppp,ns=# of satellites)
%  GPST                  latitude(deg) longitude(deg)  height(m)   Q  ns   sdn(m)   sde(m)   sdu(m)  sdne(m)  sdeu(m)  sdun(m) age(s)  ratio    vn(m/s)    ve(m/s)    vu(m/s)      sdvn     sdve     sdvu    sdvne    sdveu    sdvun
2025/01/17 08:49:39.000   31.495816456  120.270032062    51.5231   5  11   3.9271  11.1965  15.5191   5.1932 -10.6845  -6.5964   0.00    0.0   -0.01815   -0.09842    0.09078   0.15333  0.45583  0.50323  0.18943 -0.41724 -0.21709
2025/01/17 08:49:40.000   31.495815958  120.270041530    51.1867   5  11   3.9278  11.1970  15.5229   5.1941 -10.6867  -6.5986   0.00    0.0   -0.00466    0.01631   -0.10647   0.15336  0.45590  0.50342  0.18950 -0.41737 -0.21719
2025/01/17 08:49:41.000   31.495814174  120.270027674    52.1403   5  11   3.9285  11.1974  15.5266   5.1950 -10.6888  -6.6008   0.00    0.0   -0.05248   -0.09123    0.16206   0.15340  0.45596  0.50360  0.18957 -0.41749 -0.21730
2025/01/17 08:49:42.000   31.495816225  120.270039621    50.9890   5  11   3.9292  11.1978  15.5304   5.1960 -10.6910  -6.6031   0.00    0.0    0.00068    0.04008   -0.20741   0.15343  0.45603  0.50378  0.18964 -0.41762 -0.21740
2025/01/17 08:49:43.000   31.495813714  120.270033045    52.8005   5  11   3.9299  11.1983  15.5341   5.1969 -10.6932  -6.6053   0.00    0.0    0.03347    0.17646   -0.16778   0.15346  0.45610  0.50396  0.18971 -0.41775 -0.21751
2025/01/17 08:49:44.000   31.495806599  120.270012210    55.8397   5  11   3.9306  11.1987  15.5379   5.1978 -10.6953  -6.6075   0.00    0.0    0.05321    0.04569   -0.01868   0.15349  0.45617  0.50415  0.18978 -0.41788 -0.21761
2025/01/17 08:49:45.000   31.495806628  120.270014952    55.7177   5  11   3.9313  11.1991  15.5417   5.1987 -10.6975  -6.6098   0.00    0.0    0.07158    0.23503   -0.34408   0.15352  0.45623  0.50433  0.18985 -0.41801 -0.21772
2025/01/17 08:49:46.000   31.495808143  120.270028215    55.4296   5  11   3.9320  11.1996  15.5454   5.1996 -10.6997  -6.6120   0.00    0.0   -0.01904   -0.11267   -0.07576   0.15356  0.45630  0.50451  0.18993 -0.41813 -0.21782
2025/01/17 08:49:47.000   31.495807186  120.270032516    55.9418   5  11   3.9327  11.2000  15.5492   5.2005 -10.7019  -6.6143   0.00    0.0   -0.07097   -0.08800    0.23587   0.15359  0.45637  0.50469  0.19000 -0.41826 -0.21793
2025/01/17 08:49:48.000   31.495806653  120.270023146    57.0149   5  11   3.9334  11.2004  15.5529   5.2014 -10.7040  -6.6165   0.00    0.0   -0.03048   -0.16171    0.22911   0.15362  0.45644  0.50488  0.19007 -0.41839 -0.21803
2025/01/17 08:49:49.000   31.495802885  120.270012397    58.5577   5  11   3.9341  11.2009  15.5567   5.2024 -10.7062  -6.6187   0.00    0.0   -0.05552   -0.17241    0.28876   0.15365  0.45651  0.50506  0.19014 -0.41852 -0.21814
2025/01/17 08:49:50.000   31.495798832  120.270001829    59.7569   5  11   3.9348  11.2013  15.5605   5.2033 -10.7084  -6.6210   0.00    0.0   -0.04748   -0.00920    0.12459   0.15369  0.45657  0.50524  0.19021 -0.41865 -0.21824
2025/01/17 08:49:51.000   31.495799450  120.270012416    59.0851   5  11   3.9355  11.2017  15.5643   5.2042 -10.7106  -6.6232   0.00    0.0   -0.09754   -0.21250    0.41193   0.15372  0.45664  0.50542  0.19028 -0.41878 -0.21835
2025/01/17 08:49:52.000   31.495799997  120.270015700    58.5847   5  11   3.9362  11.2022  15.5680   5.2051 -10.7127  -6.6255   0.00    0.0    0.03670    0.14075   -0.08168   0.15375  0.45671  0.50561  0.19036 -0.41890 -0.21845
2025/01/17 08:49:53.000   31.495804825  120.270030644    57.4113   5  11   3.9370  11.2026  15.5718   5.2061 -10.7149  -6.6277   0.00    0.0   -0.00062    0.02916    0.01503   0.15378  0.45678  0.50579  0.19043 -0.41903 -0.21856
2025/01/17 08:49:54.000   31.495804397  120.270012735    58.9921   5  11   3.9377  11.2031  15.5756   5.2070 -10.7171  -6.6300   0.00    0.0   -0.04720   -0.14263    0.30981   0.15382  0.45685  0.50597  0.19050 -0.41916 -0.21866
2025/01/17 08:49:55.000   31.495804741  120.270015484    59.2693   5  11   3.9384  11.2035  15.5794   5.2079 -10.7193  -6.6322   0.00    0.0    0.01667    0.06528   -0.00798   0.15385  0.45691  0.50616  0.19057 -0.41929 -0.21877
2025/01/17 08:49:56.000   31.495805667  120.270020168    58.5476   5  11   3.9391  11.2040  15.5832   5.2088 -10.7215  -6.6345   0.00    0.0    0.00202    0.03679    0.04118   0.15388  0.45698  0.50634  0.19064 -0.41942 -0.21888
2025/01/17 08:49:57.000   31.495806097  120.270018797    58.2846   5  11   3.9398  11.2044  15.5870   5.2098 -10.7237  -6.6367   0.00    0.0   -0.03578   -0.18112    0.08487   0.15392  0.45705  0.50652  0.19071 -0.41955 -0.21898
2025/01/17 08:49:58.000   31.495808463  120.270030404    56.3256   5  11   3.9405  11.2049  15.5908   5.2107 -10.7259  -6.6390   0.00    0.0    0.02033    0.01262   -0.05427   0.15395  0.45712  0.50671  0.19079 -0.41968 -0.21909
2025/01/17 08:49:59.000   31.495811885  120.270043398    53.8553   5  11   3.9412  11.2053  15.5945   5.2116 -10.7281  -6.6413   0.00    0.0    0.00153    0.10675   -0.14240   0.15398  0.45719  0.50689  0.19086 -0.41981 -0.21919
2025/01/17 08:50:00.000   31.495804071  120.270024726    55.2245   5  11   3.9419  11.2057  15.5983   5.2125 -10.7302  -6.6435   0.00    0.0    0.04267    0.04863   -0.12423   0.15401  0.45726  0.50708  0.19093 -0.41994 -0.21930
2025/01/17 08:50:01.000   31.495796309  120.269977152    58.8068   5  11   3.9426  11.2062  15.6021   5.2135 -10.7324  -6.6458   0.00    0.0   -0.03917   -0.02555   -0.00091   0.15405  0.45732  0.50726  0.19100 -0.42007 -0.21941
2025/01/17 08:50:02.000   31.495799949  120.269987470    57.3361   5  11   3.9434  11.2066  15.6059   5.2144 -10.7346  -6.6480   0.00    0.0   -0.02096   -0.04735    0.14048   0.15408  0.45739  0.50744  0.19108 -0.42020 -0.21951
2025/01/17 08:50:03.000   31.495807725  120.270021380    54.1985   5  11   3.9441  11.2071  15.6097   5.2153 -10.7368  -6.6503   0.00    0.0   -0.00746   -0.02342    0.15372   0.15411  0.45746  0.50763  0.19115 -0.42033 -0.21962
2025/01/17 08:50:04.000   31.495804843  120.270019432    54.1674   5  11   3.9448  11.2075  15.6135   5.2163 -10.7390  -6.6526   0.00    0.0    0.01796    0.10255   -0.17546   0.15415  0.45753  0.50781  0.19122 -0.42046 -0.21972
2025/01/17 08:50:05.000   31.495809163  120.270018845    52.6278   5  11   3.9455  11.2080  15.6174   5.2172 -10.7412  -6.6548   0.00    0.0    0.08039    0.15888   -0.32649   0.15418  0.45760  0.50800  0.19129 -0.42058 -0.21983
2025/01/17 08:50:06.000   31.495816084  120.270036538    49.4910   5  11   3.9462  11.2085  15.6212   5.2181 -10.7434  -6.6571   0.00    0.0    0.01239   -0.07452   -0.04373   0.15421  0.45767  0.50818  0.19137 -0.42071 -0.21994
2025/01/17 08:50:07.000   31.495817245  120.270042633    48.2742   5  11   3.9470  11.2089  15.6250   5.2191 -10.7456  -6.6594   0.00    0.0   -0.04413   -0.00744    0.21904   0.15424  0.45774  0.50837  0.19144 -0.42084 -0.22004
2025/01/17 08:50:08.000   31.495816631  120.270058240    48.0733   5  11   3.9477  11.2094  15.6288   5.2200 -10.7478  -6.6616   0.00    0.0   -0.04005   -0.06120   -0.11292   0.15428  0.45781  0.50855  0.19151 -0.42097 -0.22015
2025/01/17 08:50:09.000   31.495812214  120.270049613    50.3126   5  11   3.9484  11.2098  15.6326   5.2210 -10.7500  -6.6639   0.00    0.0    0.11351    0.17569   -0.47012   0.15431  0.45787  0.50874  0.19158 -0.42110 -0.22026
2025/01/17 08:50:10.000   31.495803655  120.270039086    51.6550   5  11   3.9491  11.2103  15.6364   5.2219 -10.7523  -6.6662   0.00    0.0    0.00659   -0.03148   -0.00574   0.15434  0.45794  0.50892  0.19166 -0.42123 -0.22036
2025/01/17 08:50:11.000   31.495802116  120.270038480    52.5523   5  11   3.9498  11.2107  15.6402   5.2228 -10.7545  -6.6684   0.00    0.0    0.02186    0.19005   -0.32853   0.15438  0.45801  0.50911  0.19173 -0.42136 -0.22047
2025/01/17 08:50:12.000   31.495806175  120.270055711    50.5663   5  11   3.9506  11.2112  15.6441   5.2238 -10.7567  -6.6707   0.00    0.0    0.00757   -0.08628    0.05984   0.15441  0.45808  0.50929  0.19180 -0.42149 -0.22058
2025/01/17 08:50:14.000   31.495806520  120.270055297    51.3397   5  11   3.9520  11.2121  15.6517   5.2257 -10.7611  -6.6753   0.00    0.0    0.02753    0.13331   -0.17462   0.15448  0.45822  0.50966  0.19195 -0.42176 -0.22079
2025/01/17 08:50:15.000   31.495817331  120.270095013    47.6497   5  11   3.9527  11.2126  15.6556   5.2266 -10.7633  -6.6775   0.00    0.0   -0.00709    0.03440   -0.13270   0.15451  0.45829  0.50985  0.19202 -0.42189 -0.22090
2025/01/17 08:50:16.000   31.495825540  120.270122712    44.6976   5  11   3.9535  11.2130  15.6594   5.2276 -10.7655  -6.6798   0.00    0.0    0.05270    0.13083   -0.33344   0.15454  0.45836  0.51003  0.19209 -0.42202 -0.22100
2025/01/17 08:50:17.000   31.495825701  120.270113766    46.2553   5  11   3.9542  11.2135  15.6632   5.2285 -10.7678  -6.6821   0.00    0.0   -0.03721   -0.06033    0.20087   0.15458  0.45843  0.51022  0.19217 -0.42215 -0.22111
2025/01/17 08:50:18.000   31.495828315  120.270125412    45.4045   5  11   3.9549  11.2140  15.6671   5.2294 -10.7700  -6.6844   0.00    0.0   -0.01278   -0.16108    0.37308   0.15461  0.45850  0.51041  0.19224 -0.42228 -0.22122
2025/01/17 08:50:19.000   31.495828351  120.270138633    44.4895   5  11   3.9557  11.2144  15.6709   5.2304 -10.7722  -6.6867   0.00    0.0    0.06966    0.14569   -0.13066   0.15465  0.45857  0.51059  0.19231 -0.42241 -0.22133
2025/01/17 08:50:20.000   31.495831402  120.270146778    44.2580   5  11   3.9564  11.2149  15.6747   5.2313 -10.7744  -6.6890   0.00    0.0    0.01543    0.00674   -0.15369   0.15468  0.45864  0.51078  0.19238 -0.42254 -0.22143
2025/01/17 08:50:21.000   31.495842841  120.270158991    40.6593   5  11   3.9571  11.2154  15.6786   5.2323 -10.7767  -6.6912   0.00    0.0   -0.00472   -0.08701    0.07806   0.15471  0.45871  0.51097  0.19246 -0.42267 -0.22154
2025/01/17 08:50:22.000   31.495844473  120.270157644    40.3191   5  11   3.9579  11.2158  15.6824   5.2333 -10.7789  -6.6935   0.00    0.0   -0.03886   -0.00175   -0.02654   0.15475  0.45878  0.51115  0.19253 -0.42280 -0.22165
2025/01/17 08:50:23.000   31.495851827  120.270187872    36.9437   5  11   3.9586  11.2163  15.6863   5.2342 -10.7811  -6.6958   0.00    0.0   -0.02694    0.05265   -0.17974   0.15478  0.45885  0.51134  0.19261 -0.42293 -0.22176
2025/01/17 08:50:24.000   31.495853382  120.270202705    35.8293   5  11   3.9593  11.2168  15.6901   5.2352 -10.7833  -6.6981   0.00    0.0   -0.01185    0.21927   -0.08260   0.15481  0.45892  0.51153  0.19268 -0.42306 -0.22186
2025/01/17 08:50:25.000   31.495856836  120.270208817    34.4974   5  11   3.9601  11.2172  15.6940   5.2361 -10.7856  -6.7004   0.00    0.0   -0.00261   -0.26668    0.48978   0.15485  0.45899  0.51171  0.19275 -0.42320 -0.22197
2025/01/17 08:50:26.000   31.495848612  120.270187985    37.0877   5  11   3.9608  11.2177  15.6978   5.2371 -10.7878  -6.7027   0.00    0.0   -0.05771   -0.14263    0.07800   0.15488  0.45905  0.51190  0.19283 -0.42333 -0.22208
2025/01/17 08:50:27.000   31.495854082  120.270188009    35.3994   5  11   3.9615  11.2182  15.7017   5.2380 -10.7900  -6.7050   0.00    0.0   -0.02250   -0.19326    0.55809   0.15492  0.45912  0.51209  0.19290 -0.42346 -0.22219
2025/01/17 08:50:28.000   31.495864402  120.270183649    30.1918   5  11   3.9623  11.2187  15.7056   5.2390 -10.7923  -6.7073   0.00    0.0   -0.01465    0.13374    0.01918   0.15495  0.45919  0.51227  0.19297 -0.42359 -0.22230
2025/01/17 08:50:29.000   31.495866382  120.270082249    26.0811   5  12   3.9628  10.1279  15.6746   5.2194 -11.0259  -6.7131   0.00    0.0    0.00095   -0.23029    0.12350   0.15153  0.36280  0.49624  0.16763 -0.37885 -0.21284
2025/01/17 08:50:30.000   31.495885673  120.270063328    20.5202   5  12   3.9635  10.1286  15.6785   5.2205 -11.0280  -6.7154   0.00    0.0   -0.06496   -0.20174    0.42950   0.15156  0.36286  0.49642  0.16770 -0.37896 -0.21294
2025/01/17 08:50:31.000   31.495901451  120.270022911    16.7257   5  12   3.9643  10.1292  15.6824   5.2216 -11.0301  -6.7176   0.00    0.0    0.08380    0.23040   -0.21818   0.15159  0.36292  0.49660  0.16778 -0.37908 -0.21305
2025/01/17 08:50:32.000   31.495901368  120.270000304    18.5706   5  12   3.9650  10.1299  15.6862   5.2228 -11.0323  -6.7199   0.00    0.0    0.05992    0.13625   -0.35517   0.15163  0.36298  0.49678  0.16786 -0.37920 -0.21316
2025/01/17 08:50:33.000   31.495909128  120.270009283    14.2684   5  12   3.9658  10.1306  15.6901   5.2239 -11.0344  -6.7222   0.00    0.0   -0.02462    0.07531    0.30402   0.15166  0.36304  0.49695  0.16793 -0.37932 -0.21326
2025/01/17 08:50:34.000   31.495906339  120.270017288    13.7343   5  12   3.9665  10.1313  15.6940   5.2250 -11.0365  -6.7245   0.00    0.0   -0.05426   -0.05305    0.20136   0.15169  0.36310  0.49713  0.16801 -0.37943 -0.21337
2025/01/17 08:50:35.000   31.495906994  120.270019190    14.8904   5  12   3.9673  10.1320  15.6979   5.2261 -11.0387  -6.7267   0.00    0.0    0.01653    0.00786   -0.28512   0.15173  0.36317  0.49731  0.16808 -0.37955 -0.21347
2025/01/17 08:50:36.000   31.495899298  120.270031023    17.0751   5  12   3.9680  10.1327  15.7018   5.2273 -11.0408  -6.7290   0.00    0.0    0.01043    0.19571   -0.29010   0.15176  0.36323  0.49749  0.16816 -0.37967 -0.21358
2025/01/17 08:50:39.000   31.495821377  120.269817370    51.7220   5  13   3.0544   7.0463  12.3768   2.9805  -7.1775  -4.5624   0.00    0.0    0.03900   -0.18805   -0.20666   0.11428  0.23630  0.37398  0.02722 -0.23155 -0.11340
2025/01/17 08:50:54.000   31.495838353  120.269782697    16.7592   5  12   3.2017   7.0578  14.6771   2.5761  -4.4397  -4.8336   0.00    0.0    0.05060    0.10691   -0.11221   0.11706  0.23594  0.57589 -0.04036 -0.20215 -0.13335
2025/01/17 08:50:55.000   31.495829728  120.269760804    19.0698   5  12   3.2017   7.0571  14.6770   2.5751  -4.4359  -4.8341   0.00    0.0    0.05701    0.05498   -0.18072   0.11707  0.23591  0.57585 -0.04040 -0.20202 -0.13341
2025/01/17 08:50:56.000   31.495826493  120.269754921    19.2061   5  12   3.2017   7.0564  14.6769   2.5741  -4.4321  -4.8346   0.00    0.0   -0.04698   -0.05329    0.22468   0.11707  0.23588  0.57581 -0.04043 -0.20188 -0.13348
2025/01/17 08:50:57.000   31.495822849  120.269735446    21.2325   5  12   3.2016   7.0557  14.6767   2.5731  -4.4282  -4.8351   0.00    0.0    0.01259    0.04006    0.01857   0.11708  0.23585  0.57577 -0.04047 -0.20175 -0.13354
2025/01/17 08:50:58.000   31.495828241  120.269746655    21.6255   5  12   3.2016   7.0550  14.6766   2.5721  -4.4244  -4.8357   0.00    0.0    0.09483    0.21133   -0.38140   0.11708  0.23582  0.57573 -0.04050 -0.20161 -0.13361
2025/01/17 08:50:59.000   31.495831586  120.269751158    18.9576   5  12   3.2016   7.0543  14.6765   2.5711  -4.4206  -4.8362   0.00    0.0    0.02682    0.05626   -0.19979   0.11708  0.23579  0.57569 -0.04054 -0.20148 -0.13367
2025/01/17 08:51:00.000   31.495829603  120.269750448    20.6401   5  12   3.2016   7.0536  14.6763   2.5701  -4.4167  -4.8367   0.00    0.0    0.02731    0.16018   -0.01789   0.11709  0.23577  0.57565 -0.04057 -0.20134 -0.13374
2025/01/17 08:51:01.000   31.495829578  120.269743660    21.7253   5  12   3.2016   7.0529  14.6762   2.5692  -4.4129  -4.8372   0.00    0.0    0.00267   -0.07316    0.01530   0.11709  0.23574  0.57561 -0.04061 -0.20121 -0.13380
2025/01/17 08:51:02.000   31.495829787  120.269742723    22.3474   5  12   3.2016   7.0522  14.6761   2.5682  -4.4091  -4.8377   0.00    0.0   -0.12018   -0.21698    0.38581   0.11709  0.23571  0.57558 -0.04064 -0.20107 -0.13387
2025/01/17 08:51:03.000   31.495884138  120.269814848    11.1069   5  11   3.7852  10.2256  16.4158   4.6415  -8.5950  -6.1855   0.00    0.0   -0.00078   -0.00729    0.07084   0.15227  0.39780  0.67725  0.17187 -0.39341 -0.22953
2025/01/17 08:51:04.000   31.495830239  120.269750822    20.4808   5  12   3.2016   7.0508  14.6758   2.5662  -4.4014  -4.8387   0.00    0.0   -0.03202    0.03947    0.08697   0.11710  0.23565  0.57550 -0.04072 -0.20080 -0.13400
2025/01/17 08:51:05.000   31.495833176  120.269751002    18.7538   5  12   3.2016   7.0501  14.6756   2.5652  -4.3975  -4.8392   0.00    0.0    0.08453    0.02952   -0.21634   0.11710  0.23562  0.57546 -0.04075 -0.20066 -0.13406
2025/01/17 08:51:06.000   31.495830597  120.269747094    18.2437   5  12   3.2016   7.0494  14.6755   2.5642  -4.3937  -4.8397   0.00    0.0   -0.04360   -0.06483    0.15765   0.11711  0.23559  0.57542 -0.04079 -0.20053 -0.13412
2025/01/17 08:51:07.000   31.495828375  120.269746057    20.4407   5  12   3.2016   7.0487  14.6754   2.5632  -4.3898  -4.8402   0.00    0.0    0.08343    0.27870   -0.46899   0.11711  0.23556  0.57538 -0.04082 -0.20039 -0.13419
2025/01/17 08:51:08.000   31.495802501  120.269655168    25.2057   5  11   3.3388   7.4505  14.8207   2.9755  -4.9236  -5.0393   0.00    0.0    0.01586   -0.07483    0.12707   0.12109  0.23733  0.58752 -0.02780 -0.20873 -0.14726
2025/01/17 08:51:09.000   31.495803580  120.269652928    22.4395   5  11   3.3387   7.4498  14.8202   2.9745  -4.9195  -5.0395   0.00    0.0   -0.00835   -0.08337    0.01131   0.12109  0.23730  0.58748 -0.02786 -0.20859 -0.14732
2025/01/17 08:51:10.000   31.495803284  120.269643553    24.6638   5  11   3.3386   7.4490  14.8197   2.9735  -4.9153  -5.0397   0.00    0.0   -0.04481   -0.08364    0.01814   0.12110  0.23727  0.58743 -0.02792 -0.20846 -0.14737
2025/01/17 08:51:11.000   31.495802593  120.269648298    24.4351   5  11   3.3386   7.4482  14.8192   2.9725  -4.9112  -5.0399   0.00    0.0   -0.00688    0.07960   -0.04340   0.12110  0.23723  0.58738 -0.02798 -0.20832 -0.14742
2025/01/17 08:51:12.000   31.495804762  120.269656654    24.2491   5  11   3.3385   7.4475  14.8187   2.9715  -4.9071  -5.0401   0.00    0.0    0.08520    0.34284   -0.28433   0.12111  0.23720  0.58733 -0.02804 -0.20818 -0.14748
2025/01/17 08:51:13.000   31.495807727  120.269655807    22.5307   5  11   3.3384   7.4467  14.8182   2.9705  -4.9029  -5.0403   0.00    0.0   -0.07958   -0.00830    0.32765   0.12111  0.23717  0.58728 -0.02810 -0.20804 -0.14753
2025/01/17 08:51:14.000   31.495805762  120.269654559    23.6770   5  11   3.3384   7.4459  14.8177   2.9695  -4.8988  -5.0405   0.00    0.0   -0.08775   -0.09008    0.47093   0.12112  0.23714  0.58723 -0.02816 -0.20790 -0.14759
2025/01/17 08:51:15.000   31.495806246  120.269661789    22.3668   5  11   3.3383   7.4452  14.8172   2.9685  -4.8946  -5.0407   0.00    0.0    0.04781    0.16275   -0.27813   0.12112  0.23711  0.58719 -0.02822 -0.20776 -0.14764
2025/01/17 08:51:16.000   31.495801359  120.269661856    23.5436   5  11   3.3382   7.4444  14.8167   2.9675  -4.8905  -5.0409   0.00    0.0    0.04901    0.22191   -0.15837   0.12112  0.23708  0.58714 -0.02828 -0.20762 -0.14770
2025/01/17 08:51:17.000   31.495802505  120.269656004    24.4390   5  11   3.3382   7.4437  14.8162   2.9665  -4.8863  -5.0411   0.00    0.0    0.00662    0.01319    0.01325   0.12113  0.23705  0.58709 -0.02834 -0.20748 -0.14775
2025/01/17 08:51:18.000   31.495808281  120.269667923    22.1486   5  11   3.3381   7.4429  14.8156   2.9655  -4.8822  -5.0413   0.00    0.0   -0.02425    0.10244   -0.07182   0.12113  0.23702  0.58704 -0.02840 -0.20734 -0.14781
2025/01/17 08:51:19.000   31.495805865  120.269668321    22.4594   5  11   3.3380   7.4422  14.8151   2.9645  -4.8780  -5.0415   0.00    0.0    0.06027    0.24399   -0.33400   0.12114  0.23699  0.58699 -0.02846 -0.20720 -0.14786
2025/01/17 08:51:20.000   31.495811705  120.269672003    19.9556   5  11   3.3380   7.4414  14.8146   2.9635  -4.8738  -5.0417   0.00    0.0   -0.01792    0.00894   -0.28542   0.12114  0.23696  0.58694 -0.02852 -0.20707 -0.14791
2025/01/17 08:51:21.000   31.495814052  120.269696221    17.2653   5  11   3.3379   7.4407  14.8141   2.9624  -4.8697  -5.0419   0.00    0.0   -0.02006    0.17387   -0.00137   0.12115  0.23693  0.58689 -0.02858 -0.20693 -0.14797
2025/01/17 08:51:22.000   31.495815910  120.269710327    13.8961   5  11   3.3378   7.4399  14.8136   2.9614  -4.8655  -5.0421   0.00    0.0   -0.02094   -0.28770    0.28272   0.12115  0.23690  0.58684 -0.02864 -0.20679 -0.14802
2025/01/17 08:51:23.000   31.495823476  120.269717228     8.4424   5  11   3.3378   7.4392  14.8131   2.9604  -4.8614  -5.0423   0.00    0.0   -0.08352   -0.04950    0.44749   0.12116  0.23687  0.58679 -0.02870 -0.20665 -0.14808
2025/01/17 08:51:24.000   31.495825611  120.269738367     6.7807   5  11   3.3377   7.4384  14.8125   2.9594  -4.8572  -5.0425   0.00    0.0    0.03743    0.09690    0.19088   0.12116  0.23684  0.58675 -0.02876 -0.20651 -0.14813
2025/01/17 08:51:25.000   31.495823391  120.269736368     5.7949   5  11   3.3376   7.4377  14.8120   2.9584  -4.8530  -5.0427   0.00    0.0   -0.09938   -0.19357    0.38111   0.12116  0.23681  0.58670 -0.02882 -0.20637 -0.14819
2025/01/17 08:51:26.000   31.495828463  120.269747117     2.1043   5  11   3.3376   7.4369  14.8115   2.9574  -4.8488  -5.0429   0.00    0.0    0.05199    0.06149   -0.31586   0.12117  0.23678  0.58665 -0.02888 -0.20623 -0.14824
2025/01/17 08:51:27.000   31.495831899  120.269769802    -0.0155   5  11   3.3375   7.4362  14.8110   2.9564  -4.8447  -5.0431   0.00    0.0    0.07978    0.16904   -0.21406   0.12117  0.23675  0.58660 -0.02894 -0.20609 -0.14829
2025/01/17 08:51:28.000   31.495834715  120.269770014    -4.5615   5  11   3.3374   7.4354  14.8105   2.9554  -4.8405  -5.0432   0.00    0.0   -0.11061   -0.10182    0.56333   0.12118  0.23672  0.58655 -0.02899 -0.20595 -0.14835
2025/01/17 08:51:29.000   31.495834028  120.269783532    -6.7787   5  11   3.3373   7.4347  14.8099   2.9544  -4.8363  -5.0434   0.00    0.0   -0.00481   -0.05032    0.06240   0.12118  0.23669  0.58650 -0.02905 -0.20581 -0.14840
2025/01/17 08:51:33.000   31.495765448  120.269867706    37.3808   5  10   4.2794   8.0849  21.6638   0.4190   5.2073  -8.2344   0.00    0.0   -0.01945   -0.09905    0.07566   0.15056  0.30236  0.86478 -0.13296  0.27853 -0.28083
2025/01/17 08:51:34.000   31.495764154  120.269872040    38.8601   5  10   4.2796   8.0849  21.6611   0.4043   5.2127  -8.2346   0.00    0.0   -0.08092   -0.14411    0.17280   0.15060  0.30239  0.86473 -0.13304  0.27872 -0.28092
2025/01/17 08:51:35.000   31.495764304  120.269861406    38.9013   5  10   4.2799   8.0848  21.6584   0.3891   5.2181  -8.2347   0.00    0.0   -0.03364    0.14967    0.09341   0.15063  0.30242  0.86468 -0.13312  0.27892 -0.28101
2025/01/17 08:51:36.000   31.495762652  120.269843920    39.1087   5  10   4.2802   8.0848  21.6557   0.3732   5.2234  -8.2348   0.00    0.0   -0.10614   -0.32007    0.33674   0.15067  0.30246  0.86462 -0.13321  0.27911 -0.28110
2025/01/17 08:51:37.000   31.495756610  120.269838457    41.5257   5  10   4.2805   8.0848  21.6530   0.3566   5.2288  -8.2350   0.00    0.0   -0.00962   -0.07762    0.04757   0.15071  0.30249  0.86457 -0.13329  0.27930 -0.28119
2025/01/17 08:51:38.000   31.495759149  120.269820172    40.0604   5  10   4.2808   8.0847  21.6503   0.3392   5.2342  -8.2351   0.00    0.0    0.00097    0.13787    0.00311   0.15075  0.30252  0.86451 -0.13337  0.27949 -0.28128
2025/01/17 08:51:39.000   31.495757767  120.269817017    40.7437   5  10   4.2811   8.0847  21.6476   0.3208   5.2395  -8.2352   0.00    0.0    0.00190    0.04810    0.09982   0.15078  0.30255  0.86446 -0.13345  0.27968 -0.28136
2025/01/17 08:51:40.000   31.495759646  120.269789678    40.9180   5  10   4.2814   8.0847  21.6449   0.3014   5.2448  -8.2353   0.00    0.0    0.05204    0.17805   -0.30101   0.15082  0.30258  0.86440 -0.13354  0.27988 -0.28145
2025/01/17 08:51:41.000   31.495761033  120.269789590    39.8896   5  10   4.2817   8.0846  21.6421   0.2806   5.2502  -8.2355   0.00    0.0   -0.05819   -0.17140    0.16011   0.15086  0.30261  0.86435 -0.13362  0.28007 -0.28154
2025/01/17 08:51:42.000   31.495757521  120.269785156    42.2471   5  10   4.2820   8.0846  21.6394   0.2582   5.2555  -8.2356   0.00    0.0   -0.03023   -0.16461    0.36285   0.15090  0.30264  0.86429 -0.13370  0.28026 -0.28163
2025/01/17 08:51:43.000   31.495756894  120.269796994    41.9677   5  10   4.2823   8.0846  21.6367   0.2336   5.2608  -8.2357   0.00    0.0   -0.04484   -0.20135    0.07930   0.15093  0.30267  0.86424 -0.13378  0.28045 -0.28171
2025/01/17 08:51:44.000   31.495753870  120.269775801    42.6876   5  10   4.2826   8.0846  21.6339   0.2061   5.2661  -8.2358   0.00    0.0   -0.00896    0.21567   -0.22152   0.15097  0.30270  0.86418 -0.13387  0.28064 -0.28180
2025/01/17 08:51:45.000   31.495750394  120.269782428    43.1411   5  10   4.2829   8.0845  21.6312   0.1745   5.2713  -8.2359   0.00    0.0   -0.02110   -0.20806   -0.06509   0.15101  0.30273  0.86412 -0.13395  0.28083 -0.28189
2025/01/17 08:51:46.000   31.495749663  120.269778609    42.6089   5  10   4.2832   8.0845  21.6284   0.1355   5.2766  -8.2360   0.00    0.0    0.00616    0.14281   -0.09635   0.15105  0.30276  0.86407 -0.13403  0.28102 -0.28198
2025/01/17 08:51:47.000   31.495755674  120.269778714    41.8821   5  10   4.2834   8.0845  21.6256   0.0794   5.2818  -8.2361   0.00    0.0   -0.03526    0.02751   -0.03834   0.15108  0.30279  0.86401 -0.13411  0.28121 -0.28206
2025/01/17 08:51:48.000   31.495740032  120.269791912    53.0801   5  11   3.3360   7.4207  14.7996   2.9351  -4.7561  -5.0470   0.00    0.0    0.01418    0.02159   -0.10961   0.12127  0.23612  0.58554 -0.03018 -0.20313 -0.14941
2025/01/17 08:51:49.000   31.495740449  120.269781785    51.1473   5  11   3.3360   7.4200  14.7991   2.9341  -4.7518  -5.0472   0.00    0.0    0.04052    0.08671   -0.15498   0.12127  0.23609  0.58549 -0.03024 -0.20299 -0.14946
2025/01/17 08:51:50.000   31.495742789  120.269778127    50.1546   5  11   3.3359   7.4192  14.7985   2.9331  -4.7476  -5.0474   0.00    0.0   -0.01654   -0.04447    0.01237   0.12128  0.23606  0.58543 -0.03030 -0.20285 -0.14951
2025/01/17 08:51:52.000   31.495743704  120.269772417    49.8714   5  11   3.3358   7.4178  14.7974   2.9311  -4.7390  -5.0478   0.00    0.0   -0.10135   -0.16712    0.54892   0.12129  0.23600  0.58533 -0.03042 -0.20256 -0.14962
2025/01/17 08:51:53.000   31.495833228  120.269865149    20.3772   5  10   4.3054  11.9381  17.5097   5.8351 -10.4877  -7.1390   0.00    0.0    0.03039    0.05221   -0.16247   0.16369  0.41369  0.71380  0.19084 -0.42404 -0.25945
2025/01/17 08:51:54.000   31.495741439  120.269791989    50.8694   5  11   3.3356   7.4164  14.7963   2.9290  -4.7305  -5.0481   0.00    0.0   -0.01775   -0.18937    0.20640   0.12130  0.23595  0.58523 -0.03053 -0.20228 -0.14972
2025/01/17 08:51:56.000   31.495742488  120.269800772    50.0112   5  11   3.3355   7.4149  14.7952   2.9270  -4.7220  -5.0485   0.00    0.0   -0.05564   -0.12047    0.27680   0.12131  0.23589  0.58512 -0.03065 -0.20200 -0.14983
2025/01/17 08:51:57.000   31.495748644  120.269805848    49.3317   5  11   3.3354   7.4142  14.7946   2.9260  -4.7177  -5.0487   0.00    0.0    0.00123    0.01961   -0.19741   0.12131  0.23586  0.58507 -0.03071 -0.20185 -0.14988
2025/01/17 08:51:58.000   31.495744677  120.269804010    49.7723   5  11   3.3354   7.4135  14.7940   2.9249  -4.7134  -5.0489   0.00    0.0   -0.06101    0.01555   -0.12118   0.12131  0.23583  0.58502 -0.03077 -0.20171 -0.14993
2025/01/17 08:51:59.000   31.495743467  120.269807530    49.5968   5  11   3.3353   7.4128  14.7935   2.9239  -4.7091  -5.0491   0.00    0.0   -0.00310    0.19999   -0.24585   0.12132  0.23580  0.58497 -0.03083 -0.20157 -0.14998
2025/01/17 08:52:00.000   31.495740441  120.269807429    51.9998   5  11   3.3352   7.4121  14.7929   2.9229  -4.7049  -5.0493   0.00    0.0    0.00473    0.12247   -0.00029   0.12132  0.23577  0.58492 -0.03089 -0.20143 -0.15003
2025/01/17 08:52:01.000   31.495745344  120.269820992    52.0223   5  11   3.3352   7.4113  14.7923   2.9219  -4.7006  -5.0495   0.00    0.0    0.07809    0.21111   -0.25519   0.12133  0.23574  0.58486 -0.03094 -0.20128 -0.15009
2025/01/17 08:52:02.000   31.495745207  120.269835639    52.4101   5  11   3.3351   7.4106  14.7917   2.9208  -4.6963  -5.0496   0.00    0.0   -0.03398    0.10794    0.08931   0.12133  0.23571  0.58481 -0.03100 -0.20114 -0.15014
2025/01/17 08:52:03.000   31.495810234  120.270125292    30.5385   5  10   4.3103  11.9382  17.5316   5.8383 -10.4933  -7.1555   0.00    0.0    0.00614   -0.00435   -0.13731   0.16412  0.41418  0.71503  0.19150 -0.42491 -0.26082
2025/01/17 08:52:04.000   31.495801731  120.270133613    33.1608   5  10   4.3108  11.9382  17.5338   5.8386 -10.4939  -7.1572   0.00    0.0    0.02723   -0.00259    0.07052   0.16416  0.41423  0.71515  0.19157 -0.42500 -0.26096
2025/01/17 08:52:05.000   31.495798192  120.270128736    37.2018   5  10   4.3113  11.9382  17.5360   5.8389 -10.4944  -7.1588   0.00    0.0    0.04988    0.00423   -0.10569   0.16420  0.41428  0.71528  0.19163 -0.42509 -0.26110
2025/01/17 08:52:06.000   31.495791614  120.270098655    40.7357   5  10   4.3118  11.9382  17.5382   5.8392 -10.4950  -7.1605   0.00    0.0   -0.04613   -0.00472    0.24968   0.16425  0.41433  0.71540  0.19170 -0.42517 -0.26124
2025/01/17 08:52:07.000   31.495800837  120.270148777    36.1202   5  10   4.3123  11.9382  17.5404   5.8395 -10.4956  -7.1621   0.00    0.0   -0.04644   -0.07405    0.10720   0.16429  0.41438  0.71553  0.19176 -0.42526 -0.26137
2025/01/17 08:52:08.000   31.495796647  120.270141490    40.7457   5  10   4.3128  11.9382  17.5426   5.8398 -10.4961  -7.1638   0.00    0.0    0.03958   -0.12692   -0.16205   0.16433  0.41443  0.71565  0.19183 -0.42535 -0.26151
2025/01/17 08:52:09.000   31.495785076  120.270129602    50.6432   5  10   4.3133  11.9382  17.5448   5.8402 -10.4967  -7.1654   0.00    0.0   -0.00537   -0.10740   -0.10208   0.16438  0.41448  0.71577  0.19190 -0.42544 -0.26165
2025/01/17 08:52:10.000   31.495779022  120.270133195    55.7980   5  10   4.3138  11.9382  17.5470   5.8405 -10.4972  -7.1671   0.00    0.0    0.01706    0.07303   -0.21172   0.16442  0.41453  0.71590  0.19196 -0.42552 -0.26179
2025/01/17 08:52:11.000   31.495774518  120.270110176    55.3517   5  10   4.3143  11.9382  17.5492   5.8408 -10.4978  -7.1687   0.00    0.0   -0.08260    0.00402    0.33949   0.16446  0.41458  0.71602  0.19203 -0.42561 -0.26192
2025/01/17 08:52:12.000   31.495785852  120.270120016    47.6663   5  10   4.3148  11.9382  17.5514   5.8411 -10.4983  -7.1704   0.00    0.0   -0.00577   -0.05393    0.11113   0.16451  0.41463  0.71615  0.19209 -0.42570 -0.26206
2025/01/17 08:52:13.000   31.495788346  120.270118806    48.1202   5  10   4.3154  11.9382  17.5536   5.8414 -10.4989  -7.1721   0.00    0.0   -0.04340    0.13982   -0.11454   0.16455  0.41468  0.71627  0.19216 -0.42579 -0.26220
2025/01/17 08:52:14.000   31.495796183  120.270070111    42.7530   5  10   4.3159  11.9382  17.5558   5.8418 -10.4994  -7.1737   0.00    0.0   -0.00988    0.01288    0.03664   0.16459  0.41473  0.71639  0.19223 -0.42588 -0.26234
2025/01/17 08:52:15.000   31.495801358  120.270048366    37.1026   5  10   4.3164  11.9382  17.5580   5.8421 -10.5000  -7.1754   0.00    0.0    0.03910   -0.03628    0.22655   0.16464  0.41478  0.71652  0.19229 -0.42596 -0.26247
2025/01/17 08:52:16.000   31.495808505  120.270048022    32.2918   5  10   4.3169  11.9382  17.5601   5.8424 -10.5006  -7.1771   0.00    0.0    0.02308   -0.06290   -0.27026   0.16468  0.41483  0.71664  0.19236 -0.42605 -0.26261
2025/01/17 08:52:17.000   31.495802377  120.269998260    37.3977   5  10   4.3174  11.9382  17.5623   5.8427 -10.5011  -7.1787   0.00    0.0   -0.02497   -0.09376    0.15995   0.16472  0.41488  0.71677  0.19242 -0.42614 -0.26275
2025/01/17 08:52:18.000   31.495811290  120.269984872    33.9931   5  10   4.3179  11.9382  17.5645   5.8430 -10.5017  -7.1804   0.00    0.0   -0.01431   -0.08750    0.15827   0.16477  0.41493  0.71689  0.19249 -0.42623 -0.26289
2025/01/17 08:52:19.000   31.495796857  120.269895651    46.0504   5  11   3.1307   9.7187  15.6889   3.6773  -7.4504  -5.2987   0.00    0.0    0.01939    0.10360    0.15104   0.13911  0.40014  0.65446  0.16540 -0.38669 -0.20807
2025/01/17 08:52:20.000   31.495806039  120.269938723    45.1665   5  12   2.9694   8.8956  15.3837   3.1041  -6.5887  -5.0027   0.00    0.0    0.04130    0.00142   -0.08817   0.13129  0.38852  0.63028  0.15152 -0.36420 -0.18765
2025/01/17 08:52:21.000   31.495796658  120.269966551    39.3551   5  11   3.1319   9.7183  15.6952   3.6779  -7.4529  -5.3038   0.00    0.0   -0.01122   -0.10405    0.08801   0.13917  0.40022  0.65467  0.16551 -0.38683 -0.20834
2025/01/17 08:52:22.000   31.495790786  120.269872496    54.4589   5  12   2.9705   8.8948  15.3897   3.1044  -6.5910  -5.0078   0.00    0.0    0.00366    0.03951   -0.14554   0.13134  0.38857  0.63046  0.15160 -0.36431 -0.18791
2025/01/17 08:52:23.000   31.495779250  120.269839311    61.4480   5  12   2.9711   8.8945  15.3928   3.1046  -6.5921  -5.0104   0.00    0.0   -0.01196   -0.01452   -0.08720   0.13136  0.38860  0.63055  0.15164 -0.36436 -0.18804
2025/01/17 08:52:24.000   31.495769217  120.269818427    67.9859   5  12   2.9716   8.8941  15.3958   3.1047  -6.5932  -5.0129   0.00    0.0   -0.04736   -0.08310    0.27041   0.13139  0.38863  0.63063  0.15169 -0.36441 -0.18817
2025/01/17 08:52:25.000   31.495760122  120.269790322    73.7128   5  12   2.9722   8.8937  15.3989   3.1049  -6.5943  -5.0155   0.00    0.0    0.03214   -0.02573    0.22230   0.13141  0.38866  0.63072  0.15173 -0.36446 -0.18830
2025/01/17 08:52:26.000   31.495761379  120.269793215    74.5450   5  12   2.9728   8.8934  15.4019   3.1050  -6.5954  -5.0180   0.00    0.0   -0.00166   -0.09707    0.24059   0.13143  0.38869  0.63081  0.15177 -0.36452 -0.18843
2025/01/17 08:52:27.000   31.495762203  120.269818413    74.1122   5  12   2.9733   8.8930  15.4050   3.1052  -6.5965  -5.0206   0.00    0.0    0.02642   -0.01788    0.06149   0.13146  0.38871  0.63090  0.15182 -0.36457 -0.18856
2025/01/17 08:52:28.000   31.495755831  120.269784623    76.3001   5  12   2.9739   8.8927  15.4080   3.1053  -6.5977  -5.0232   0.00    0.0   -0.06212   -0.26452    0.37881   0.13148  0.38874  0.63099  0.15186 -0.36462 -0.18868
2025/01/17 08:52:30.000   31.495742811  120.269763676    79.7161   5  12   2.9750   8.8919  15.4141   3.1056  -6.5999  -5.0283   0.00    0.0    0.05119    0.07973   -0.48330   0.13153  0.38880  0.63117  0.15194 -0.36473 -0.18894
2025/01/17 08:52:31.000   31.495743671  120.269777841    78.4792   5  12   2.9756   8.8916  15.4172   3.1058  -6.6010  -5.0308   0.00    0.0    0.00680   -0.04375    0.07715   0.13155  0.38883  0.63126  0.15199 -0.36478 -0.18907
2025/01/17 08:52:32.000   31.495760186  120.269850424    64.9745   5  12   2.9761   8.8912  15.4202   3.1060  -6.6022  -5.0334   0.00    0.0   -0.02832   -0.06271    0.11294   0.13158  0.38886  0.63135  0.15203 -0.36483 -0.18920
2025/01/17 08:52:33.000   31.495749912  120.269779010    70.5079   5  13   2.7325   6.6888  14.3136   1.6529  -3.1555  -4.3102   0.00    0.0    0.04600   -0.01914   -0.14653   0.10704  0.23193  0.55448 -0.02782 -0.19707 -0.11276
2025/01/17 08:52:34.000   31.495743208  120.269740722    75.3442   5  13   2.7328   6.6883  14.3143   1.6518  -3.1519  -4.3118   0.00    0.0   -0.10910   -0.16816    0.39764   0.10704  0.23190  0.55445 -0.02786 -0.19694 -0.11285
2025/01/17 08:52:35.000   31.495738620  120.269728462    77.3875   5  13   2.7331   6.6877  14.3150   1.6507  -3.1483  -4.3135   0.00    0.0    0.04746    0.24531   -0.10023   0.10705  0.23187  0.55442 -0.02790 -0.19680 -0.11294
2025/01/17 08:52:36.000   31.495745254  120.269736825    73.5105   5  13   2.7334   6.6872  14.3157   1.6496  -3.1447  -4.3151   0.00    0.0   -0.00570   -0.00057   -0.18725   0.10705  0.23184  0.55439 -0.02794 -0.19667 -0.11303
2025/01/17 08:52:37.000   31.495789336  120.269963992    47.8623   5  12   2.9790   8.8894  15.4355   3.1068  -6.6079  -5.0462   0.00    0.0   -0.01099   -0.03944   -0.09337   0.13170  0.38900  0.63180  0.15224 -0.36510 -0.18985
2025/01/17 08:52:38.000   31.495786509  120.269952517    46.3490   5  12   2.9795   8.8891  15.4385   3.1069  -6.6090  -5.0488   0.00    0.0   -0.05694    0.00865   -0.03728   0.13172  0.38903  0.63189  0.15229 -0.36515 -0.18998
2025/01/17 08:52:39.000   31.495789431  120.269950715    42.7585   5  12   2.9801   8.8887  15.4416   3.1071  -6.6102  -5.0514   0.00    0.0   -0.00919   -0.00970    0.06624   0.13175  0.38905  0.63198  0.15233 -0.36521 -0.19011
2025/01/17 08:52:40.000   31.495786308  120.269942521    42.0189   5  12   2.9807   8.8884  15.4446   3.1073  -6.6113  -5.0539   0.00    0.0    0.03432    0.02712    0.13901   0.13177  0.38908  0.63207  0.15237 -0.36526 -0.19024
2025/01/17 08:52:41.000   31.495789452  120.269953900    38.5688   5  12   2.9813   8.8880  15.4477   3.1074  -6.6125  -5.0565   0.00    0.0   -0.09533   -0.22596    0.24599   0.13179  0.38911  0.63216  0.15242 -0.36531 -0.19037
2025/01/17 08:52:42.000   31.495789798  120.269944373    39.6339   5  12   2.9818   8.8877  15.4507   3.1076  -6.6136  -5.0591   0.00    0.0    0.02634   -0.02511    0.29775   0.13182  0.38914  0.63225  0.15246 -0.36537 -0.19050
2025/01/17 08:52:43.000   31.495797056  120.269957571    37.5258   5  12   2.9824   8.8873  15.4538   3.1078  -6.6148  -5.0616   0.00    0.0   -0.06629   -0.36734    0.51504   0.13184  0.38917  0.63234  0.15250 -0.36542 -0.19062
2025/01/17 08:52:44.000   31.495797496  120.269957319    39.4393   5  12   2.9830   8.8869  15.4569   3.1079  -6.6159  -5.0642   0.00    0.0   -0.01434    0.10865   -0.09401   0.13187  0.38920  0.63243  0.15255 -0.36548 -0.19075
2025/01/17 08:52:45.000   31.495797297  120.269933050    37.4827   5  12   2.9836   8.8866  15.4599   3.1081  -6.6170  -5.0668   0.00    0.0    0.00933   -0.17678    0.11019   0.13189  0.38923  0.63252  0.15259 -0.36553 -0.19088
2025/01/17 08:52:46.000   31.495801939  120.269964905    34.3173   5  12   2.9842   8.8862  15.4630   3.1083  -6.6182  -5.0694   0.00    0.0    0.05173    0.03186   -0.11083   0.13192  0.38925  0.63261  0.15263 -0.36558 -0.19101
2025/01/17 08:52:47.000   31.495810048  120.269982930    32.3800   5  12   2.9847   8.8859  15.4660   3.1084  -6.6194  -5.0719   0.00    0.0    0.01351    0.04257    0.22711   0.13194  0.38928  0.63270  0.15268 -0.36564 -0.19114
2025/01/17 08:52:48.000   31.495825401  120.269965242    27.4171   5  12   2.9853   8.8855  15.4691   3.1086  -6.6205  -5.0745   0.00    0.0    0.03090    0.10046    0.35402   0.13197  0.38931  0.63279  0.15272 -0.36569 -0.19127
2025/01/17 08:52:49.000   31.495821973  120.270012348    33.3598   5  12   2.9859   8.8852  15.4721   3.1088  -6.6217  -5.0771   0.00    0.0    0.05923   -1.06868   -1.04201   0.13199  0.38934  0.63288  0.15276 -0.36574 -0.19140
2025/01/17 08:52:50.000   31.495832431  120.269955415    20.9530   5  12   2.9865   8.8848  15.4752   3.1090  -6.6228  -5.0797   0.00    0.0    0.41652   -4.22619   -5.63639   0.13202  0.38937  0.63297  0.15281 -0.36580 -0.19153
2025/01/17 08:52:51.000   31.495828932  120.269939694    18.3026   5  11   3.1434  10.3517  18.2771   2.1133   2.7859  -5.9451   0.00    0.0   -0.02602   -0.07646    0.06598   0.13444  0.46363  0.72647  0.13039 -0.21018 -0.21387
2025/01/17 08:52:52.000   31.495817109  120.269920351    23.7480   5  11   3.1444  10.3506  18.2807   2.1121   2.7822  -5.9486   0.00    0.0   -0.02366    0.13085    0.11087   0.13448  0.46363  0.72657  0.13038 -0.21028 -0.21404
2025/01/17 08:52:53.000   31.495818051  120.269871882    25.4841   5  11   3.1454  10.3496  18.2842   2.1109   2.7786  -5.9521   0.00    0.0   -0.03109    0.08288    0.10372   0.13451  0.46363  0.72667  0.13037 -0.21038 -0.21422
2025/01/17 08:52:54.000   31.495813528  120.269835655    27.3778   5  11   3.1464  10.3485  18.2877   2.1097   2.7749  -5.9557   0.00    0.0    0.02199   -0.07540   -0.21298   0.13455  0.46363  0.72677  0.13036 -0.21048 -0.21439
2025/01/17 08:52:55.000   31.495796198  120.269920772    54.4804   5  12   3.0454   9.7666  13.1404   2.6763  -5.9842  -5.0397   0.00    0.0   -0.07243   -0.00101    0.09425   0.13281  0.44070  0.46015  0.14188 -0.35408 -0.18377
2025/01/17 08:52:56.000   31.495798640  120.269920085    57.2992   5  12   3.0460   9.7658  13.1430   2.6762  -5.9857  -5.0417   0.00    0.0   -0.00880    0.15747    0.00972   0.13283  0.44070  0.46029  0.14191 -0.35415 -0.18386
2025/01/17 08:52:57.000   31.495796125  120.269928425    58.8989   5  12   3.0467   9.7650  13.1455   2.6761  -5.9871  -5.0438   0.00    0.0    0.00787    0.18363   -0.07458   0.13286  0.44070  0.46044  0.14194 -0.35422 -0.18394
2025/01/17 08:52:58.000   31.495790245  120.269921589    61.4132   5  12   3.0473   9.7641  13.1481   2.6760  -5.9886  -5.0458   0.00    0.0   -0.01136    0.10849    0.04830   0.13288  0.44070  0.46058  0.14198 -0.35428 -0.18402
2025/01/17 08:52:59.000   31.495789521  120.269933229    61.0764   5  12   3.0480   9.7633  13.1507   2.6759  -5.9900  -5.0479   0.00    0.0    0.03929    0.19891   -0.35599   0.13291  0.44070  0.46072  0.14201 -0.35435 -0.18411
2025/01/17 08:53:00.000   31.495787696  120.269952468    60.0398   5  12   3.0486   9.7625  13.1532   2.6758  -5.9915  -5.0499   0.00    0.0    0.00410    0.11034    0.07430   0.13293  0.44070  0.46086  0.14204 -0.35442 -0.18419
2025/01/17 08:53:01.000   31.495783353  120.269976877    57.2296   5  12   3.0493   9.7617  13.1558   2.6757  -5.9930  -5.0520   0.00    0.0    0.00222   -0.13229    0.06557   0.13296  0.44070  0.46100  0.14207 -0.35449 -0.18428
2025/01/17 08:53:02.000   31.495789537  120.269968917    57.3688   5  12   3.0499   9.7609  13.1584   2.6756  -5.9944  -5.0540   0.00    0.0   -0.03771   -0.00761    0.07249   0.13299  0.44071  0.46114  0.14210 -0.35456 -0.18436
2025/01/17 08:53:03.000   31.495787656  120.269974560    57.1337   5  12   3.0506   9.7601  13.1610   2.6755  -5.9959  -5.0561   0.00    0.0    0.03727    0.11149   -0.07514   0.13301  0.44071  0.46128  0.14213 -0.35463 -0.18445
2025/01/17 08:53:04.000   31.495804354  120.269892675    29.5551   5  11   3.1565  10.3378  18.3231   2.0978   2.7372  -5.9909   0.00    0.0   -0.00659   -0.07472   -0.15999   0.13492  0.46365  0.72777  0.13027 -0.21151 -0.21613
2025/01/17 08:53:05.000   31.495807540  120.269896815    28.8972   5  11   3.1576  10.3367  18.3266   2.0966   2.7333  -5.9944   0.00    0.0   -0.01378    0.04882   -0.05496   0.13496  0.46365  0.72788  0.13026 -0.21162 -0.21630
2025/01/17 08:53:06.000   31.495804852  120.269904714    28.4858   5  11   3.1586  10.3356  18.3302   2.0954   2.7295  -5.9979   0.00    0.0   -0.02490    0.01374    0.13321   0.13500  0.46365  0.72798  0.13025 -0.21172 -0.21647
2025/01/17 08:53:07.000   31.495815860  120.269879086    25.4674   5  11   3.1596  10.3346  18.3337   2.0943   2.7257  -6.0014   0.00    0.0    0.04338    0.10363    0.01022   0.13504  0.46366  0.72808  0.13024 -0.21182 -0.21665
2025/01/17 08:53:08.000   31.495815680  120.269859690    25.2848   5  11   3.1606  10.3335  18.3372   2.0931   2.7218  -6.0050   0.00    0.0   -0.02432    0.16815    0.10065   0.13508  0.46366  0.72818  0.13023 -0.21192 -0.21682
2025/01/17 08:53:09.000   31.495810875  120.269877970    27.0348   5  11   3.1617  10.3324  18.3408   2.0919   2.7180  -6.0085   0.00    0.0   -0.00014    0.13524   -0.23564   0.13511  0.46366  0.72828  0.13022 -0.21203 -0.21699
2025/01/17 08:53:10.000   31.495810498  120.269891210    27.6529   5  11   3.1627  10.3314  18.3443   2.0907   2.7141  -6.0120   0.00    0.0    0.06991    0.19419   -0.12990   0.13515  0.46366  0.72838  0.13021 -0.21213 -0.21717
2025/01/17 08:53:11.000   31.495813490  120.269906198    27.1434   5  11   3.1637  10.3303  18.3479   2.0896   2.7102  -6.0155   0.00    0.0    0.04558    0.04715   -0.32086   0.13519  0.46367  0.72848  0.13020 -0.21223 -0.21734
2025/01/17 08:53:12.000   31.495816651  120.269905401    25.0778   5  11   3.1648  10.3292  18.3514   2.0884   2.7063  -6.0191   0.00    0.0    0.09833    0.06280   -0.61582   0.13523  0.46367  0.72858  0.13019 -0.21234 -0.21751
2025/01/17 08:53:13.000   31.495829118  120.269916107    20.7130   5  11   3.1658  10.3282  18.3550   2.0872   2.7024  -6.0226   0.00    0.0    0.01708    0.02043   -0.14252   0.13527  0.46367  0.72868  0.13018 -0.21244 -0.21769
2025/01/17 08:53:14.000   31.495827816  120.269893014    22.4911   5  11   3.1668  10.3271  18.3585   2.0861   2.6985  -6.0261   0.00    0.0    0.01458    0.19900   -0.20585   0.13531  0.46367  0.72878  0.13018 -0.21254 -0.21786
2025/01/17 08:53:15.000   31.495831225  120.269888127    23.2302   5  11   3.1679  10.3261  18.3620   2.0849   2.6946  -6.0296   0.00    0.0    0.02749   -0.09045   -0.33492   0.13535  0.46367  0.72889  0.13017 -0.21265 -0.21803
2025/01/17 08:53:16.000   31.495849610  120.269907112    15.8404   5  11   3.1689  10.3250  18.3656   2.0837   2.6906  -6.0332   0.00    0.0   -0.04762    0.12986   -0.11210   0.13538  0.46368  0.72899  0.13016 -0.21275 -0.21821
2025/01/17 08:53:17.000   31.495853178  120.269917188    12.2494   5  11   3.1699  10.3239  18.3691   2.0826   2.6866  -6.0367   0.00    0.0    0.01763   -0.03523   -0.30222   0.13542  0.46368  0.72909  0.13015 -0.21285 -0.21838
2025/01/17 08:53:18.000   31.495858380  120.269925116     8.4146   5  11   3.1710  10.3229  18.3727   2.0814   2.6827  -6.0402   0.00    0.0    0.03660    0.18631   -0.17986   0.13546  0.46368  0.72919  0.13014 -0.21296 -0.21855
2025/01/17 08:53:19.000   31.495870640  120.269931784     4.5958   5  11   3.1720  10.3218  18.3762   2.0802   2.6787  -6.0437   0.00    0.0   -0.03553   -0.06115    0.10280   0.13550  0.46368  0.72929  0.13013 -0.21306 -0.21872
2025/01/17 08:53:20.000   31.495873431  120.269915170     2.8688   5  11   3.1731  10.3207  18.3798   2.0791   2.6747  -6.0473   0.00    0.0   -0.04676    0.01450    0.66050   0.13554  0.46369  0.72939  0.13012 -0.21316 -0.21890
2025/01/17 08:53:21.000   31.495884360  120.269930771    -2.1007   5  11   3.1741  10.3197  18.3833   2.0779   2.6707  -6.0508   0.00    0.0   -0.01001   -0.09593    0.16128   0.13558  0.46369  0.72950  0.13012 -0.21327 -0.21907
2025/01/17 08:53:22.000   31.495878058  120.269955228    -0.9573   5  11   3.1752  10.3186  18.3869   2.0768   2.6667  -6.0543   0.00    0.0    0.02640    0.18026    0.23451   0.13562  0.46369  0.72960  0.13011 -0.21337 -0.21924
2025/01/17 08:53:23.000   31.495878332  120.269969387    -0.4401   5  11   3.1762  10.3176  18.3904   2.0756   2.6627  -6.0578   0.00    0.0   -0.01265   -0.09768    0.13498   0.13566  0.46369  0.72970  0.13010 -0.21347 -0.21941
2025/01/17 08:53:24.000   31.495880802  120.269969140    -2.4844   5  11   3.1772  10.3165  18.3940   2.0745   2.6587  -6.0614   0.00    0.0    0.08549    0.06906   -0.29901   0.13570  0.46369  0.72980  0.13009 -0.21358 -0.21959
2025/01/17 08:53:25.000   31.495884944  120.269973598    -2.8808   5  11   3.1783  10.3155  18.3975   2.0733   2.6546  -6.0649   0.00    0.0   -0.02662   -0.08935    0.14198   0.13574  0.46370  0.72990  0.13008 -0.21368 -0.21976
2025/01/17 08:53:26.000   31.495888259  120.269986624    -4.3265   5  11   3.1793  10.3144  18.4011   2.0722   2.6506  -6.0684   0.00    0.0   -0.00782    0.11567    0.05215   0.13577  0.46370  0.73001  0.13007 -0.21379 -0.21993
2025/01/17 08:53:27.000   31.495866492  120.270082379    34.7958   5  12   3.0664   9.7408  13.2231   2.6737  -6.0311  -5.1054   0.00    0.0    0.00076    0.16852   -0.00221   0.13363  0.44072  0.46469  0.14288 -0.35628 -0.18650
2025/01/17 08:53:28.000   31.495868881  120.270063176    31.4825   5  12   3.0671   9.7400  13.2257   2.6736  -6.0326  -5.1075   0.00    0.0    0.01563   -0.05782    0.20832   0.13365  0.44072  0.46484  0.14291 -0.35635 -0.18658
2025/01/17 08:53:29.000   31.495871260  120.270061981    29.7531   5  12   3.0677   9.7392  13.2283   2.6736  -6.0340  -5.1095   0.00    0.0   -0.00167    0.24775   -0.23713   0.13368  0.44072  0.46498  0.14295 -0.35642 -0.18667
2025/01/17 08:53:30.000   31.495872682  120.270093596    27.6075   5  12   3.0684   9.7384  13.2309   2.6735  -6.0355  -5.1116   0.00    0.0   -0.07436   -0.22883    0.18120   0.13371  0.44072  0.46512  0.14298 -0.35648 -0.18676
2025/01/17 08:53:31.000   31.495874220  120.270082373    23.7012   5  13   2.9872   8.8298  12.6590   3.1683  -7.2305  -4.8409   0.00    0.0    0.01287    0.03630    0.05487   0.13279  0.38995  0.46523  0.15398 -0.35480 -0.18710
2025/01/17 08:53:32.000   31.495873828  120.270093311    22.8099   5  13   2.9877   8.8295  12.6615   3.1686  -7.2317  -4.8427   0.00    0.0   -0.01115   -0.10211    0.02608   0.13281  0.38998  0.46537  0.15403 -0.35489 -0.18718
2025/01/17 08:53:33.000   31.495881478  120.270078551     2.6446   5  12   3.0124   8.8702  15.6071   3.1173  -6.6738  -5.1907   0.00    0.0   -0.02202    0.01613   -0.14225   0.13312  0.39063  0.63688  0.15468 -0.36815 -0.19706
2025/01/17 08:53:34.000   31.495883542  120.270107624     0.9572   5  12   3.0130   8.8699  15.6101   3.1175  -6.6750  -5.1933   0.00    0.0   -0.02659   -0.04446    0.07678   0.13314  0.39066  0.63697  0.15473 -0.36821 -0.19719
2025/01/17 08:53:35.000   31.495876799  120.270101280     1.3347   5  12   3.0137   8.8696  15.6132   3.1177  -6.6762  -5.1959   0.00    0.0   -0.01304   -0.09829   -0.00503   0.13317  0.39069  0.63706  0.15477 -0.36826 -0.19732
2025/01/17 08:53:36.000   31.495856191  120.269941979     9.3497   5  11   3.1899  10.3038  18.4366   2.0608   2.6095  -6.1036   0.00    0.0   -0.00737    0.16225    0.12794   0.13617  0.46372  0.73103  0.12999 -0.21482 -0.22165
2025/01/17 08:53:37.000   31.495878672  120.270106220     4.7021   5  12   3.0149   8.8689  15.6194   3.1182  -6.6786  -5.2011   0.00    0.0    0.00934   -0.04566    0.02247   0.13322  0.39075  0.63724  0.15486 -0.36838 -0.19758
2025/01/17 08:53:38.000   31.495883844  120.270114256     4.8106   5  12   3.0155   8.8686  15.6225   3.1184  -6.6799  -5.2037   0.00    0.0   -0.01063    0.01367    0.01733   0.13325  0.39078  0.63733  0.15491 -0.36843 -0.19770
2025/01/17 08:53:41.000   31.495892496  120.270007725    -3.9162   5  13   2.9957   7.8713  15.3718   3.3473  -7.5007  -5.1121   0.00    0.0    0.01717   -0.03946   -0.14231   0.13282  0.33068  0.63465  0.14702 -0.38556 -0.19988
2025/01/17 08:53:42.000   31.495895533  120.270008958    -4.1120   5  13   2.9963   7.8712  15.3749   3.3478  -7.5017  -5.1146   0.00    0.0    0.00200   -0.04225    0.20840   0.13285  0.33070  0.63474  0.14708 -0.38561 -0.20001
2025/01/17 08:53:43.000   31.495887837  120.269990952    -2.8530   5  13   2.9968   7.8711  15.3780   3.3483  -7.5027  -5.1171   0.00    0.0    0.06102    0.06080   -0.07224   0.13288  0.33073  0.63484  0.14714 -0.38566 -0.20013
2025/01/17 08:53:44.000   31.495889019  120.269978083    -5.1028   5  13   2.9974   7.8711  15.3812   3.3488  -7.5037  -5.1196   0.00    0.0   -0.00057   -0.00042    0.03705   0.13291  0.33076  0.63493  0.14720 -0.38571 -0.20025
2025/01/17 08:53:45.000   31.495889842  120.269982757    -7.8957   5  13   2.9980   7.8710  15.3843   3.3493  -7.5047  -5.1221   0.00    0.0   -0.03614   -0.01547    0.19230   0.13294  0.33078  0.63502  0.14726 -0.38577 -0.20038
2025/01/17 08:53:46.000   31.495889039  120.269968040    -6.0118   5  13   2.9986   7.8709  15.3874   3.3498  -7.5057  -5.1246   0.00    0.0   -0.03797   -0.26441    0.29467   0.13297  0.33081  0.63512  0.14732 -0.38582 -0.20050
2025/01/17 08:53:47.000   31.495886253  120.269953236    -4.6460   5  13   2.9991   7.8709  15.3906   3.3503  -7.5067  -5.1271   0.00    0.0   -0.07776   -0.19016    0.18653   0.13300  0.33084  0.63521  0.14738 -0.38587 -0.20062
2025/01/17 08:53:48.000   31.495892249  120.269942784    -9.8948   5  13   2.9997   7.8708  15.3937   3.3508  -7.5077  -5.1296   0.00    0.0   -0.02314   -0.18566   -0.03159   0.13303  0.33086  0.63530  0.14744 -0.38592 -0.20075
2025/01/17 08:53:49.000   31.495892995  120.269951191   -10.6916   5  13   3.0003   7.8708  15.3968   3.3514  -7.5086  -5.1321   0.00    0.0    0.07563   -0.02660    0.16662   0.13305  0.33089  0.63540  0.14750 -0.38597 -0.20087
2025/01/17 08:53:50.000   31.495901504  120.269950854   -10.2186   5  13   3.0009   7.8707  15.3999   3.3519  -7.5096  -5.1346   0.00    0.0   -0.04740   -0.10698    0.15885   0.13308  0.33092  0.63549  0.14756 -0.38603 -0.20100
2025/01/17 08:53:51.000   31.495899023  120.269941147   -10.6212   5  13   3.0014   7.8706  15.4031   3.3524  -7.5106  -5.1371   0.00    0.0    0.06414    0.19096   -0.48442   0.13311  0.33094  0.63558  0.14762 -0.38608 -0.20112
2025/01/17 08:53:52.000   31.495895924  120.269949204   -10.8556   5  13   3.0020   7.8706  15.4062   3.3529  -7.5116  -5.1396   0.00    0.0   -0.00715   -0.13142    0.16178   0.13314  0.33097  0.63568  0.14768 -0.38613 -0.20124
2025/01/17 08:53:53.000   31.495887195  120.269936903    -8.1279   5  13   3.0026   7.8705  15.4093   3.3534  -7.5126  -5.1421   0.00    0.0   -0.09482   -0.04098    0.01725   0.13317  0.33100  0.63577  0.14774 -0.38618 -0.20137
2025/01/17 08:53:54.000   31.495885837  120.269948946    -9.4207   5  13   3.0032   7.8705  15.4125   3.3539  -7.5136  -5.1446   0.00    0.0    0.01696   -0.08017    0.09290   0.13320  0.33102  0.63587  0.14780 -0.38623 -0.20149
2025/01/17 08:53:55.000   31.495885322  120.269957930    -7.1615   5  13   3.0038   7.8704  15.4156   3.3544  -7.5146  -5.1471   0.00    0.0   -0.03731    0.04893    0.03412   0.13323  0.33105  0.63596  0.14786 -0.38629 -0.20161
2025/01/17 08:53:56.000   31.495879424  120.269964168    -2.8207   5  13   3.0043   7.8703  15.4187   3.3549  -7.5156  -5.1496   0.00    0.0   -0.01230    0.07043    0.28828   0.13326  0.33108  0.63605  0.14792 -0.38634 -0.20174
2025/01/17 08:53:57.000   31.495874866  120.269976389    -0.8594   5  13   3.0049   7.8703  15.4219   3.3554  -7.5166  -5.1521   0.00    0.0   -0.02163   -0.06773   -0.04122   0.13329  0.33110  0.63615  0.14798 -0.38639 -0.20186
2025/01/17 08:53:58.000   31.495874645  120.269993608     1.2598   5  13   3.0055   7.8702  15.4250   3.3560  -7.5176  -5.1546   0.00    0.0    0.03561   -0.01934    0.07772   0.13332  0.33113  0.63624  0.14804 -0.38644 -0.20198
2025/01/17 08:53:59.000   31.495821389  120.269926313    44.6532   5  13   3.0255   8.0897  12.8200   3.2362  -7.4929  -4.9536   0.00    0.0    0.01856   -0.00208   -0.18834   0.13428  0.33650  0.46507  0.13651 -0.33260 -0.18806
2025/01/17 08:54:00.000   31.495872590  120.270004692     6.3393   5  13   3.0067   7.8701  15.4313   3.3570  -7.5197  -5.1596   0.00    0.0    0.03321   -0.02141   -0.07344   0.13337  0.33118  0.63643  0.14816 -0.38655 -0.20223
2025/01/17 08:54:02.000   31.495869370  120.270021216     9.9159   5  13   3.0078   7.8700  15.4375   3.3580  -7.5217  -5.1646   0.00    0.0    0.03789    0.00308   -0.13580   0.13343  0.33124  0.63662  0.14828 -0.38665 -0.20248
2025/01/17 08:54:03.000   31.495871001  120.270047396    10.3783   5  13   3.0084   7.8700  15.4407   3.3585  -7.5227  -5.1671   0.00    0.0   -0.00612   -0.00934   -0.01619   0.13346  0.33126  0.63671  0.14834 -0.38671 -0.20260
2025/01/17 08:54:04.000   31.495866847  120.270050139    11.0141   5  13   3.0090   7.8699  15.4438   3.3591  -7.5237  -5.1696   0.00    0.0    0.00419    0.05789    0.00029   0.13349  0.33129  0.63680  0.14840 -0.38676 -0.20273
2025/01/17 08:54:05.000   31.495870840  120.270060363     9.0561   5  13   3.0096   7.8699  15.4469   3.3596  -7.5247  -5.1721   0.00    0.0   -0.05736   -0.07858    0.06551   0.13352  0.33132  0.63690  0.14847 -0.38681 -0.20285
2025/01/17 08:54:06.000   31.495870597  120.270067641     7.1684   5  13   3.0102   7.8698  15.4501   3.3601  -7.5257  -5.1746   0.00    0.0   -0.02378   -0.15920    0.01856   0.13355  0.33135  0.63699  0.14853 -0.38686 -0.20297
2025/01/17 08:54:07.000   31.495874905  120.270054961     7.8011   5  13   3.0108   7.8698  15.4532   3.3606  -7.5267  -5.1772   0.00    0.0   -0.00098    0.05986   -0.02613   0.13358  0.33137  0.63709  0.14859 -0.38692 -0.20310
2025/01/17 08:54:08.000   31.495876329  120.270044755     3.5055   5  13   3.0114   7.8697  15.4564   3.3611  -7.5277  -5.1797   0.00    0.0   -0.02324    0.10593   -0.32333   0.13361  0.33140  0.63718  0.14865 -0.38697 -0.20322
2025/01/17 08:54:09.000   31.495875073  120.270035415     3.2345   5  13   3.0120   7.8697  15.4595   3.3617  -7.5287  -5.1822   0.00    0.0   -0.07552    0.02527    0.41139   0.13364  0.33143  0.63727  0.14871 -0.38702 -0.20334
2025/01/17 08:54:10.000   31.495875805  120.270021622    -1.1451   5  13   3.0126   7.8696  15.4626   3.3622  -7.5298  -5.1847   0.00    0.0    0.01175    0.06894   -0.01646   0.13367  0.33145  0.63737  0.14877 -0.38707 -0.20347
2025/01/17 08:54:11.000   31.495880690  120.270027031    -2.0059   5  13   3.0132   7.8696  15.4658   3.3627  -7.5308  -5.1872   0.00    0.0    0.03546    0.10919   -0.26911   0.13370  0.33148  0.63746  0.14883 -0.38713 -0.20359
2025/01/17 08:54:12.000   31.495882599  120.270027814    -3.6096   5  13   3.0138   7.8695  15.4689   3.3632  -7.5318  -5.1897   0.00    0.0   -0.03637   -0.07839   -0.02798   0.13373  0.33151  0.63756  0.14889 -0.38718 -0.20371
2025/01/17 08:54:13.000   31.495886884  120.270038871    -4.4156   5  13   3.0144   7.8695  15.4721   3.3637  -7.5328  -5.1923   0.00    0.0   -0.06188   -0.11245   -0.05083   0.13376  0.33154  0.63765  0.14895 -0.38723 -0.20384
2025/01/17 08:54:14.000   31.495890898  120.270051335    -6.9578   5  13   3.0150   7.8694  15.4752   3.3643  -7.5338  -5.1948   0.00    0.0   -0.05548   -0.15860    0.29622   0.13379  0.33156  0.63775  0.14901 -0.38729 -0.20396
2025/01/17 08:54:15.000   31.495903043  120.270100370   -15.0280   5  13   3.0156   7.8694  15.4784   3.3648  -7.5349  -5.1973   0.00    0.0   -0.01593   -0.25308    0.13560   0.13382  0.33159  0.63784  0.14907 -0.38734 -0.20408
2025/01/17 08:54:16.000   31.495903412  120.270118429   -16.8356   5  13   3.0162   7.8693  15.4815   3.3653  -7.5359  -5.1998   0.00    0.0   -0.02296   -0.14022   -0.10464   0.13385  0.33162  0.63794  0.14913 -0.38739 -0.20421
2025/01/17 08:54:17.000   31.495906050  120.270135237   -16.5572   5  13   3.0168   7.8693  15.4846   3.3658  -7.5369  -5.2023   0.00    0.0    0.12255    0.32348   -0.71786   0.13388  0.33165  0.63803  0.14919 -0.38745 -0.20433
2025/01/17 08:54:18.000   31.495904151  120.270131845   -16.2841   5  13   3.0174   7.8692  15.4878   3.3664  -7.5379  -5.2048   0.00    0.0    0.02989   -0.00749   -0.21632   0.13391  0.33167  0.63812  0.14925 -0.38750 -0.20446
2025/01/17 08:54:19.000   31.495900039  120.270126146   -12.8314   5  13   3.0180   7.8692  15.4909   3.3669  -7.5390  -5.2074   0.00    0.0   -0.30255   -1.18041    1.93132   0.13394  0.33170  0.63822  0.14931 -0.38755 -0.20458
2025/01/17 08:54:22.000   31.495844288  120.269937079    26.8339   5  12   3.6344   9.5357  20.0597   4.7158 -11.2010  -7.2763   0.00    0.0   -0.02740    0.02629   -0.05693   0.14008  0.38147  0.68118  0.17324 -0.44158 -0.22730
2025/01/17 08:54:23.000   31.495806981  120.269902773    14.8358   5  13   3.0204   7.8690  15.5035   3.3690  -7.5430  -5.2174   0.00    0.0   -0.07478   -0.21529    0.20180   0.13406  0.33181  0.63860  0.14956 -0.38776 -0.20507
2025/01/17 08:54:24.000   31.495846604  120.269918316    28.7398   5  12   3.6375   9.5380  20.0727   4.7196 -11.2078  -7.2851   0.00    0.0    0.01884   -0.01358   -0.08599   0.14016  0.38156  0.68140  0.17340 -0.44172 -0.22757
2025/01/17 08:54:26.000   31.495847443  120.269891810    25.5835   5  12   3.6406   9.5403  20.0858   4.7234 -11.2146  -7.2938   0.00    0.0   -0.06258   -0.02690    0.16181   0.14024  0.38164  0.68162  0.17355 -0.44187 -0.22785
2025/01/17 08:54:27.000   31.495842300  120.269871653    24.8911   5  12   3.6422   9.5414  20.0923   4.7253 -11.2180  -7.2982   0.00    0.0   -0.00669   -0.06665    0.22424   0.14028  0.38169  0.68173  0.17363 -0.44194 -0.22798
2025/01/17 08:54:28.000   31.495844546  120.269880738    24.4035   5  12   3.6438   9.5425  20.0988   4.7273 -11.2215  -7.3026   0.00    0.0   -0.01277    0.13935    0.29415   0.14032  0.38173  0.68184  0.17371 -0.44201 -0.22812
2025/01/17 08:54:29.000   31.495846388  120.269905870    23.7182   5  12   3.6454   9.5437  20.1053   4.7292 -11.2249  -7.3069   0.00    0.0    0.03295    0.10839   -0.09070   0.14036  0.38178  0.68195  0.17379 -0.44208 -0.22826
2025/01/17 08:54:30.000   31.495848051  120.269913873    23.0028   5  12   3.6469   9.5448  20.1119   4.7311 -11.2283  -7.3113   0.00    0.0    0.07327    0.03943   -0.22592   0.14040  0.38182  0.68206  0.17387 -0.44215 -0.22839
2025/01/17 08:54:31.000   31.495848988  120.269917954    22.2528   5  12   3.6485   9.5460  20.1184   4.7330 -11.2318  -7.3157   0.00    0.0   -0.04087    0.05447    0.02548   0.14044  0.38187  0.68217  0.17394 -0.44222 -0.22853
2025/01/17 08:54:32.000   31.495848309  120.269923089    22.4335   5  12   3.6501   9.5471  20.1249   4.7349 -11.2352  -7.3201   0.00    0.0    0.03664   -0.17533   -0.14013   0.14048  0.38191  0.68228  0.17402 -0.44229 -0.22867
2025/01/17 08:54:33.000   31.495846547  120.269929075    22.9084   5  12   3.6517   9.5483  20.1315   4.7369 -11.2386  -7.3245   0.00    0.0    0.06339    0.10948   -0.43717   0.14052  0.38196  0.68239  0.17410 -0.44236 -0.22880
2025/01/17 08:54:34.000   31.495847013  120.269923678    22.3904   5  12   3.6533   9.5494  20.1380   4.7388 -11.2421  -7.3288   0.00    0.0    0.03555   -0.09245   -0.09292   0.14056  0.38200  0.68250  0.17418 -0.44243 -0.22894
2025/01/17 08:54:35.000   31.495849039  120.269925000    21.2655   5  12   3.6548   9.5506  20.1445   4.7407 -11.2455  -7.3332   0.00    0.0   -0.02836    0.00607   -0.04944   0.14060  0.38205  0.68261  0.17426 -0.44251 -0.22908
2025/01/17 08:54:36.000   31.495848568  120.269929864    21.3307   5  12   3.6564   9.5517  20.1511   4.7427 -11.2490  -7.3376   0.00    0.0    0.03227   -0.01697    0.22956   0.14064  0.38209  0.68272  0.17434 -0.44258 -0.22921
2025/01/17 08:54:37.000   31.495848138  120.269921761    21.1967   5  12   3.6580   9.5529  20.1576   4.7446 -11.2524  -7.3420   0.00    0.0   -0.01140    0.01718    0.07686   0.14068  0.38214  0.68283  0.17442 -0.44265 -0.22935
2025/01/17 08:54:38.000   31.495851894  120.269933326    20.0003   5  12   3.6596   9.5540  20.1642   4.7465 -11.2559  -7.3464   0.00    0.0    0.01597    0.05678   -0.11439   0.14072  0.38218  0.68294  0.17449 -0.44272 -0.22949
2025/01/17 08:54:39.000   31.495851054  120.269927916    19.5959   5  12   3.6612   9.5552  20.1707   4.7485 -11.2593  -7.3508   0.00    0.0   -0.04472    0.02756    0.36087   0.14076  0.38223  0.68305  0.17457 -0.44279 -0.22962
2025/01/17 08:54:40.000   31.495850573  120.269931819    19.2890   5  12   3.6628   9.5564  20.1773   4.7504 -11.2628  -7.3552   0.00    0.0    0.03005   -0.18014    0.03938   0.14080  0.38227  0.68316  0.17465 -0.44286 -0.22976
2025/01/17 08:54:41.000   31.495847090  120.269932554    19.5742   5  12   3.6644   9.5575  20.1838   4.7523 -11.2662  -7.3596   0.00    0.0    0.00499    0.03220    0.04523   0.14085  0.38232  0.68327  0.17473 -0.44293 -0.22990
2025/01/17 08:54:42.000   31.495844924  120.269918613    20.7687   5  12   3.6660   9.5587  20.1904   4.7543 -11.2697  -7.3640   0.00    0.0    0.01967   -0.04701   -0.14739   0.14089  0.38236  0.68339  0.17481 -0.44301 -0.23003
2025/01/17 08:54:43.000   31.495847015  120.269931125    20.6647   5  12   3.6676   9.5599  20.1970   4.7562 -11.2732  -7.3684   0.00    0.0    0.07243    0.02306   -0.35154   0.14093  0.38241  0.68350  0.17489 -0.44308 -0.23017
2025/01/17 08:54:44.000   31.495845611  120.269930338    20.6290   5  12   3.6692   9.5610  20.2035   4.7582 -11.2766  -7.3728   0.00    0.0    0.01827    0.03171   -0.04711   0.14097  0.38245  0.68361  0.17496 -0.44315 -0.23031
2025/01/17 08:54:53.000   31.495835073  120.269928395    27.6921   5  12   3.6837   9.5716  20.2627   4.7757 -11.3079  -7.4125   0.00    0.0   -0.06406    0.01954    0.20672   0.14134  0.38286  0.68461  0.17567 -0.44380 -0.23154
2025/01/17 08:54:54.000   31.495834848  120.269918545    27.4761   5  12   3.6853   9.5727  20.2693   4.7777 -11.3114  -7.4170   0.00    0.0    0.02447   -0.10232   -0.13036   0.14138  0.38290  0.68472  0.17575 -0.44387 -0.23168
2025/01/17 08:54:55.000   31.495833645  120.269918254    26.8681   5  12   3.6869   9.5739  20.2759   4.7796 -11.3149  -7.4214   0.00    0.0    0.05931   -0.02369   -0.13561   0.14142  0.38295  0.68483  0.17583 -0.44394 -0.23181
2025/01/17 08:54:56.000   31.495832027  120.269918854    26.1237   5  12   3.6886   9.5751  20.2825   4.7816 -11.3184  -7.4258   0.00    0.0    0.03388    0.00661   -0.22380   0.14146  0.38300  0.68494  0.17591 -0.44402 -0.23195
2025/01/17 08:54:57.000   31.495832193  120.269908548    25.6470   5  12   3.6902   9.5763  20.2891   4.7836 -11.3219  -7.4303   0.00    0.0    0.03859    0.27654   -0.15632   0.14151  0.38304  0.68505  0.17599 -0.44409 -0.23209
2025/01/17 08:54:58.000   31.495832286  120.269907393    24.1637   5  12   3.6918   9.5775  20.2957   4.7855 -11.3254  -7.4347   0.00    0.0   -0.00097    0.09336    0.09724   0.14155  0.38309  0.68516  0.17607 -0.44416 -0.23222
2025/01/17 08:54:59.000   31.495828003  120.269862429    26.1629   5  12   3.6935   9.5786  20.3024   4.7875 -11.3289  -7.4391   0.00    0.0   -0.01679   -0.06538    0.12449   0.14159  0.38313  0.68528  0.17614 -0.44423 -0.23236
2025/01/17 08:55:00.000   31.495825407  120.269836772    27.4333   5  12   3.6951   9.5798  20.3090   4.7894 -11.3324  -7.4436   0.00    0.0   -0.04310    0.07434    0.08380   0.14163  0.38318  0.68539  0.17622 -0.44430 -0.23250
2025/01/17 08:55:01.000   31.495871917  120.269967032    -3.8208   5  13   3.0441   7.8676  15.6234   3.3895  -7.5827  -5.3137   0.00    0.0   -0.02127    0.17068    0.32056   0.13524  0.33287  0.64222  0.15187 -0.38981 -0.20976
2025/01/17 08:55:02.000   31.495868837  120.269966811    -1.5145   5  13   3.0447   7.8675  15.6265   3.3901  -7.5838  -5.3162   0.00    0.0   -0.01096   -0.01139    0.01697   0.13527  0.33289  0.64232  0.15193 -0.38987 -0.20988
2025/01/17 08:55:03.000   31.495865043  120.269958863     0.8892   5  13   3.0453   7.8675  15.6297   3.3906  -7.5848  -5.3188   0.00    0.0    0.01222    0.04572   -0.09159   0.13530  0.33292  0.64241  0.15199 -0.38992 -0.21001
2025/01/17 08:55:04.000   31.495859635  120.269949915     5.0880   5  13   3.0460   7.8675  15.6329   3.3912  -7.5859  -5.3213   0.00    0.0   -0.00702    0.08897    0.21476   0.13533  0.33295  0.64251  0.15205 -0.38997 -0.21013
2025/01/17 08:55:05.000   31.495854577  120.269944231    10.1673   5  13   3.0466   7.8675  15.6360   3.3917  -7.5869  -5.3239   0.00    0.0   -0.02316    0.05747   -0.11698   0.13536  0.33298  0.64261  0.15212 -0.39003 -0.21025
2025/01/17 08:55:06.000   31.495850537  120.269929635     9.4135   5  13   3.0473   7.8674  15.6392   3.3923  -7.5880  -5.3264   0.00    0.0    0.03532    0.01361   -0.07470   0.13540  0.33301  0.64270  0.15218 -0.39008 -0.21037
2025/01/17 08:55:07.000   31.495849594  120.269944317     9.5614   5  13   3.0479   7.8674  15.6423   3.3929  -7.5891  -5.3289   0.00    0.0    0.00485    0.07519    0.21873   0.13543  0.33304  0.64280  0.15224 -0.39014 -0.21050
2025/01/17 08:55:09.000   31.495839936  120.269982722    23.6798   5  13   3.0492   7.8674  15.6487   3.3940  -7.5912  -5.3340   0.00    0.0    0.03842    0.00571   -0.14242   0.13549  0.33309  0.64299  0.15236 -0.39025 -0.21074
2025/01/17 08:55:14.000   31.495860601  120.269846928    -0.7084   5  12   3.1584   8.2048  17.2132   3.1063  -6.4099  -5.8630   0.00    0.0   -0.01769   -0.14149    0.14971   0.13981  0.34058  0.69187  0.14466 -0.36691 -0.23082
2025/01/17 08:55:16.000   31.495856274  120.269843377     0.6745   5  12   3.1602   8.2044  17.2206   3.1069  -6.4124  -5.8692   0.00    0.0    0.02762    0.04120   -0.19537   0.13989  0.34063  0.69210  0.14477 -0.36703 -0.23110
2025/01/17 08:55:17.000   31.495855347  120.269832299     2.4734   5  12   3.1611   8.2042  17.2244   3.1072  -6.4137  -5.8723   0.00    0.0    0.01386   -0.05964    0.01089   0.13993  0.34065  0.69221  0.14483 -0.36710 -0.23124
2025/01/17 08:55:18.000   31.495858648  120.269827525     0.5183   5  12   3.1620   8.2040  17.2281   3.1075  -6.4150  -5.8754   0.00    0.0   -0.00523    0.04142    0.13135   0.13998  0.34067  0.69232  0.14489 -0.36716 -0.23138
2025/01/17 08:55:19.000   31.495857287  120.269828950     1.1499   5  12   3.1629   8.2038  17.2318   3.1078  -6.4162  -5.8786   0.00    0.0   -0.00139    0.07908    0.11019   0.14002  0.34069  0.69244  0.14495 -0.36722 -0.23153
2025/01/17 08:55:20.000   31.495855631  120.269817026     2.3782   5  12   3.1638   8.2036  17.2355   3.1081  -6.4175  -5.8817   0.00    0.0   -0.02993   -0.00204   -0.08481   0.14006  0.34071  0.69255  0.14500 -0.36729 -0.23167
2025/01/17 08:55:21.000   31.495854247  120.269800031     2.7399   5  12   3.1647   8.2034  17.2393   3.1084  -6.4188  -5.8848   0.00    0.0    0.00577   -0.10501    0.15321   0.14010  0.34073  0.69266  0.14506 -0.36735 -0.23181
2025/01/17 08:55:22.000   31.495774486  120.269455687    66.3178   5  12   3.1225   7.2556  13.4722   2.6703   1.8293  -5.0140   0.00    0.0    0.08501   -0.18013   -0.51861   0.13138  0.21729  0.45537  0.09055  0.12021 -0.16403
2025/01/17 08:55:23.000   31.495859934  120.269805055     0.4655   5  12   3.1665   8.2030  17.2467   3.1091  -6.4214  -5.8910   0.00    0.0   -0.00349   -0.03527   -0.10300   0.14019  0.34078  0.69289  0.14518 -0.36748 -0.23209
2025/01/17 08:55:24.000   31.495857340  120.269802985     0.9368   5  12   3.1674   8.2027  17.2505   3.1094  -6.4226  -5.8941   0.00    0.0    0.02265    0.04062   -0.07554   0.14023  0.34080  0.69300  0.14523 -0.36754 -0.23223
2025/01/17 08:55:25.000   31.495861153  120.269802396     0.5280   5  12   3.1683   8.2025  17.2542   3.1097  -6.4239  -5.8972   0.00    0.0    0.05934   -0.02320   -0.28165   0.14027  0.34082  0.69311  0.14529 -0.36760 -0.23237
2025/01/17 08:55:26.000   31.495860406  120.269797662    -0.0641   5  12   3.1692   8.2023  17.2579   3.1100  -6.4252  -5.9003   0.00    0.0    0.00744    0.01025   -0.23332   0.14031  0.34084  0.69323  0.14535 -0.36767 -0.23252
2025/01/17 08:55:27.000   31.495856947  120.269795112     0.5662   5  12   3.1701   8.2021  17.2617   3.1103  -6.4265  -5.9034   0.00    0.0    0.00739   -0.06098    0.04057   0.14036  0.34087  0.69334  0.14541 -0.36773 -0.23266
2025/01/17 08:55:28.000   31.495856390  120.269784891     1.4252   5  12   3.1710   8.2019  17.2654   3.1106  -6.4278  -5.9065   0.00    0.0   -0.05193   -0.09673    0.20125   0.14040  0.34089  0.69345  0.14547 -0.36779 -0.23280
2025/01/17 08:55:29.000   31.495856703  120.269779550     2.2774   5  12   3.1720   8.2017  17.2691   3.1110  -6.4291  -5.9097   0.00    0.0    0.02390    0.16600    0.04208   0.14044  0.34091  0.69357  0.14552 -0.36786 -0.23294
2025/01/17 08:55:30.000   31.495854617  120.269770604     2.7501   5  12   3.1729   8.2015  17.2729   3.1113  -6.4303  -5.9128   0.00    0.0    0.06281    0.29264   -0.26578   0.14048  0.34093  0.69368  0.14558 -0.36792 -0.23308
2025/01/17 08:55:31.000   31.495829111  120.269880274    29.8159   5  13   3.0637   7.8669  15.7184   3.4063  -7.6149  -5.3902   0.00    0.0    0.02053   -0.01240   -0.29607   0.13620  0.33372  0.64512  0.15371 -0.39146 -0.21345
2025/01/17 08:55:32.000   31.495824707  120.269880447    33.6648   5  13   3.0643   7.8669  15.7216   3.4069  -7.6160  -5.3928   0.00    0.0   -0.03511   -0.17571    0.16204   0.13624  0.33375  0.64521  0.15377 -0.39152 -0.21358
2025/01/17 08:55:33.000   31.495818187  120.269879258    38.6600   5  13   3.0650   7.8669  15.7247   3.4075  -7.6171  -5.3954   0.00    0.0    0.05095    0.09540    0.02816   0.13627  0.33378  0.64531  0.15383 -0.39157 -0.21370
2025/01/17 08:55:34.000   31.495820019  120.269892341    37.0236   5  13   3.0657   7.8669  15.7279   3.4081  -7.6182  -5.3979   0.00    0.0   -0.03782    0.08154    0.20399   0.13630  0.33381  0.64541  0.15389 -0.39163 -0.21382
2025/01/17 08:55:35.000   31.495821968  120.269906051    36.3903   5  13   3.0663   7.8669  15.7311   3.4086  -7.6193  -5.4005   0.00    0.0   -0.00465    0.11142   -0.23428   0.13633  0.33384  0.64550  0.15395 -0.39168 -0.21395
2025/01/17 08:55:41.000   31.495828392  120.269942601    30.8092   5  13   3.0704   7.8668  15.7501   3.4121  -7.6259  -5.4159   0.00    0.0   -0.03412   -0.15656    0.01475   0.13653  0.33402  0.64609  0.15432 -0.39202 -0.21468
2025/01/17 08:55:42.000   31.495829752  120.269933171    32.2904   5  13   3.0710   7.8668  15.7533   3.4126  -7.6270  -5.4184   0.00    0.0   -0.01325    0.05890   -0.05655   0.13657  0.33405  0.64618  0.15438 -0.39207 -0.21481
2025/01/17 08:55:43.000   31.495837261  120.269957339    27.6050   5  13   3.0717   7.8668  15.7565   3.4132  -7.6281  -5.4210   0.00    0.0    0.01683   -0.02576    0.06971   0.13660  0.33408  0.64628  0.15445 -0.39213 -0.21493
2025/01/17 08:55:44.000   31.495839647  120.269977570    23.7009   5  13   3.0724   7.8668  15.7597   3.4138  -7.6292  -5.4236   0.00    0.0    0.03356    0.15713   -0.15583   0.13663  0.33410  0.64638  0.15451 -0.39219 -0.21505
2025/01/17 08:55:45.000   31.495845090  120.269979961    21.8638   5  13   3.0731   7.8668  15.7629   3.4144  -7.6303  -5.4262   0.00    0.0   -0.00757   -0.06093    0.10496   0.13667  0.33413  0.64648  0.15457 -0.39224 -0.21518
2025/01/17 08:55:46.000   31.495847705  120.269998598    17.8460   5  13   3.0738   7.8668  15.7660   3.4150  -7.6314  -5.4287   0.00    0.0    0.03310    0.18149   -0.19305   0.13670  0.33416  0.64657  0.15463 -0.39230 -0.21530
2025/01/17 08:55:47.000   31.495850798  120.269998734    16.2958   5  13   3.0744   7.8668  15.7692   3.4155  -7.6325  -5.4313   0.00    0.0   -0.00498   -0.05764    0.12701   0.13673  0.33419  0.64667  0.15469 -0.39236 -0.21542
2025/01/17 08:55:55.000   31.495848513  120.269929351    18.5844   5  12   3.7879   9.6475  20.6768   4.9002 -11.5287  -7.6906   0.00    0.0    0.03344    0.06840   -0.22715   0.14400  0.38576  0.69162  0.18059 -0.44839 -0.24004
2025/01/17 08:55:56.000   31.495845208  120.269863698    16.2977   5  12   3.7896   9.6487  20.6835   4.9022 -11.5323  -7.6952   0.00    0.0   -0.02452    0.08740   -0.09545   0.14405  0.38581  0.69174  0.18067 -0.44847 -0.24018
2025/01/17 08:55:57.000   31.495846741  120.269807996    10.8419   5  12   3.7914   9.6500  20.6903   4.9043 -11.5360  -7.6997   0.00    0.0   -0.03824    0.18888    0.23742   0.14409  0.38586  0.69185  0.18075 -0.44854 -0.24032
2025/01/17 08:55:58.000   31.495848997  120.269754969     6.6663   5  12   3.7931   9.6512  20.6971   4.9064 -11.5396  -7.7043   0.00    0.0   -0.00837   -0.03330    0.02463   0.14414  0.38590  0.69197  0.18083 -0.44862 -0.24045
2025/01/17 08:55:59.000   31.495850815  120.269720916     5.2130   5  12   3.7948   9.6525  20.7039   4.9084 -11.5432  -7.7089   0.00    0.0    0.02267    0.20064   -0.03219   0.14418  0.38595  0.69208  0.18090 -0.44869 -0.24059
2025/01/17 08:56:00.000   31.495852630  120.269717833     2.8172   5  12   3.7966   9.6538  20.7106   4.9105 -11.5469  -7.7134   0.00    0.0   -0.02949   -0.01655    0.37658   0.14423  0.38600  0.69220  0.18098 -0.44877 -0.24073
2025/01/17 08:56:01.000   31.495849042  120.269642665     1.3673   5  12   3.7984   9.6550  20.7174   4.9125 -11.5505  -7.7180   0.00    0.0   -0.02667    0.17677    0.12492   0.14427  0.38605  0.69231  0.18106 -0.44885 -0.24087
2025/01/17 08:56:02.000   31.495849136  120.269763125     6.0653   5  11   3.8021  10.6249  20.9277   4.8581 -10.9815  -7.7460   0.00    0.0   -0.00287   -0.05683    0.20872   0.14642  0.40617  0.72029  0.17232 -0.42014 -0.25098
2025/01/17 08:56:05.000   31.495914171  120.270004148   -34.0275   5  12   3.2057   8.1947  17.4040   3.1230  -6.4764  -6.0221   0.00    0.0   -0.00447   -0.11600    0.07850   0.14200  0.34172  0.69768  0.14762 -0.37018 -0.23803
2025/01/17 08:56:07.000   31.495909390  120.269992093   -33.2254   5  12   3.2076   8.1944  17.4115   3.1237  -6.4791  -6.0284   0.00    0.0    0.00163    0.26613   -0.19622   0.14209  0.34176  0.69791  0.14774 -0.37031 -0.23832
2025/01/17 08:56:08.000   31.495906860  120.269990112   -32.4143   5  12   3.2086   8.1942  17.4152   3.1240  -6.4804  -6.0315   0.00    0.0    0.02496   -0.08873    0.03132   0.14214  0.34178  0.69803  0.14780 -0.37038 -0.23846
2025/01/17 08:56:09.000   31.495905515  120.269990193   -31.5101   5  12   3.2096   8.1940  17.4190   3.1244  -6.4817  -6.0347   0.00    0.0   -0.00229    0.03424    0.04545   0.14218  0.34181  0.69814  0.14786 -0.37044 -0.23860
2025/01/17 08:56:10.000   31.495907248  120.269982828   -32.2136   5  12   3.2105   8.1938  17.4227   3.1247  -6.4831  -6.0378   0.00    0.0   -0.06338    0.06106    0.21715   0.14223  0.34183  0.69826  0.14792 -0.37051 -0.23874
2025/01/17 08:56:11.000   31.495906101  120.269986131   -31.4152   5  12   3.2115   8.1936  17.4265   3.1251  -6.4844  -6.0410   0.00    0.0    0.01703   -0.16274    0.12239   0.14227  0.34185  0.69837  0.14797 -0.37058 -0.23888
2025/01/17 08:56:12.000   31.495909289  120.269995163   -33.5192   5  12   3.2125   8.1934  17.4303   3.1255  -6.4858  -6.0441   0.00    0.0   -0.05231   -0.13964   -0.09345   0.14231  0.34188  0.69849  0.14803 -0.37064 -0.23902
2025/01/17 08:56:13.000   31.495904751  120.269994636   -31.6446   5  12   3.2134   8.1932  17.4340   3.1258  -6.4871  -6.0472   0.00    0.0    0.01316   -0.03242   -0.08683   0.14236  0.34190  0.69860  0.14809 -0.37071 -0.23916
2025/01/17 08:56:14.000   31.495900057  120.269961138   -29.9886   5  12   3.2144   8.1931  17.4378   3.1262  -6.4884  -6.0504   0.00    0.0    0.02121   -0.09224   -0.01886   0.14240  0.34192  0.69872  0.14815 -0.37077 -0.23931
2025/01/17 08:56:16.000   31.495891806  120.269955110   -26.6333   5  12   3.2163   8.1927  17.4453   3.1269  -6.4911  -6.0566   0.00    0.0    0.01528   -0.07537   -0.22524   0.14249  0.34197  0.69895  0.14827 -0.37090 -0.23959
2025/01/17 08:56:17.000   31.495887542  120.269930701   -23.5006   5  12   3.2173   8.1925  17.4491   3.1272  -6.4925  -6.0598   0.00    0.0    0.03620    0.15163   -0.05832   0.14254  0.34199  0.69907  0.14833 -0.37097 -0.23973
2025/01/17 08:56:18.000   31.495888103  120.269936639   -23.1951   5  12   3.2183   8.1923  17.4528   3.1276  -6.4938  -6.0629   0.00    0.0   -0.03486   -0.00081    0.02287   0.14258  0.34201  0.69918  0.14839 -0.37103 -0.23987
2025/01/17 08:56:19.000   31.495886595  120.269927950   -22.4539   5  12   3.2192   8.1921  17.4566   3.1280  -6.4952  -6.0661   0.00    0.0   -0.02478    0.03620    0.17577   0.14263  0.34204  0.69930  0.14845 -0.37110 -0.24001
2025/01/17 08:56:20.000   31.495888989  120.269931915   -23.1822   5  12   3.2202   8.1919  17.4603   3.1283  -6.4965  -6.0692   0.00    0.0    0.03282    0.10734   -0.14434   0.14267  0.34206  0.69942  0.14850 -0.37117 -0.24016
2025/01/17 08:56:21.000   31.495882493  120.269925636   -19.8292   5  12   3.2212   8.1918  17.4641   3.1287  -6.4979  -6.0723   0.00    0.0    0.02184    0.13086   -0.18220   0.14272  0.34208  0.69953  0.14856 -0.37123 -0.24030
2025/01/17 08:56:25.000   31.495858279  120.269988137    14.5736   5  13   3.1140   8.0645  13.2182   3.3168  -7.6615  -5.2373   0.00    0.0   -0.02224    0.01163    0.26685   0.13871  0.34002  0.48732  0.14431 -0.34461 -0.20190
2025/01/17 08:56:26.000   31.495862150  120.269983735    10.8623   5  13   3.1147   8.0643  13.2210   3.3174  -7.6627  -5.2393   0.00    0.0   -0.02015    0.04316   -0.13466   0.13875  0.34005  0.48748  0.14437 -0.34469 -0.20200
2025/01/17 08:56:27.000   31.495850862  120.269925142    14.3686   5  13   3.1154   8.0642  13.2238   3.3180  -7.6639  -5.2413   0.00    0.0    0.02700    0.04292   -0.09499   0.13878  0.34007  0.48764  0.14442 -0.34478 -0.20210
2025/01/17 08:56:28.000   31.495837932  120.269876494    20.2796   5  13   3.1160   8.0640  13.2266   3.3187  -7.6651  -5.2433   0.00    0.0   -0.05182   -0.23244    0.36884   0.13881  0.34010  0.48780  0.14448 -0.34486 -0.20220
2025/01/17 08:56:30.000   31.495831807  120.269801229    13.6006   5  12   3.2300   8.1901  17.4980   3.1320  -6.5101  -6.1006   0.00    0.0    0.03159    0.06163   -0.12178   0.14312  0.34229  0.70058  0.14909 -0.37183 -0.24157
2025/01/17 08:56:35.000   31.495848856  120.269916839     6.0062   5  13   3.1082   7.8670  15.9221   3.4440  -7.6865  -5.5552   0.00    0.0   -0.04274   -0.06154    0.24229   0.13838  0.33563  0.65139  0.15766 -0.39509 -0.22133
2025/01/17 08:56:36.000   31.495854241  120.269873281    -1.1401   5  13   3.1089   7.8670  15.9253   3.4446  -7.6877  -5.5578   0.00    0.0    0.06290    0.06493   -0.36391   0.13841  0.33566  0.65149  0.15772 -0.39514 -0.22145
2025/01/17 08:56:37.000   31.495851688  120.269855891     1.3379   5  13   3.1096   7.8670  15.9284   3.4452  -7.6888  -5.5604   0.00    0.0    0.08936   -0.16031   -0.69228   0.13845  0.33569  0.65159  0.15778 -0.39520 -0.22157
2025/01/17 08:56:38.000   31.495851701  120.269879619     1.6583   5  13   3.1103   7.8670  15.9316   3.4459  -7.6900  -5.5630   0.00    0.0   -0.05080    0.15351    0.38389   0.13848  0.33572  0.65169  0.15784 -0.39526 -0.22170
2025/01/17 08:56:39.000   31.495852811  120.269923279     0.6905   5  13   3.1111   7.8670  15.9348   3.4465  -7.6911  -5.5656   0.00    0.0   -0.02393    0.02819   -0.16334   0.13852  0.33575  0.65179  0.15791 -0.39532 -0.22182
2025/01/17 08:56:40.000   31.495855890  120.269955350     2.5984   5  13   3.1118   7.8670  15.9380   3.4471  -7.6923  -5.5682   0.00    0.0    0.01712   -0.05044   -0.29670   0.13855  0.33578  0.65189  0.15797 -0.39537 -0.22194
2025/01/17 08:56:41.000   31.495854090  120.269986878     4.6744   5  13   3.1125   7.8671  15.9412   3.4477  -7.6935  -5.5708   0.00    0.0   -0.02583   -0.04969   -0.09305   0.13859  0.33581  0.65199  0.15803 -0.39543 -0.22206
2025/01/17 08:56:43.000   31.495858386  120.270021169     5.4567   5  13   3.1140   7.8671  15.9476   3.4489  -7.6958  -5.5760   0.00    0.0   -0.02423   -0.04654    0.19772   0.13866  0.33587  0.65219  0.15815 -0.39555 -0.22231
2025/01/17 08:56:44.000   31.495866762  120.270034649     1.2100   5  13   3.1147   7.8671  15.9508   3.4495  -7.6969  -5.5786   0.00    0.0   -0.00980   -0.10660   -0.02267   0.13870  0.33590  0.65229  0.15822 -0.39561 -0.22243
2025/01/17 08:56:45.000   31.495873327  120.270039040    -3.8025   5  13   3.1155   7.8671  15.9540   3.4501  -7.6981  -5.5812   0.00    0.0    0.04009   -0.00302   -0.21725   0.13873  0.33593  0.65239  0.15828 -0.39566 -0.22256
2025/01/17 08:56:46.000   31.495876901  120.270052780    -8.7170   5  13   3.1162   7.8672  15.9572   3.4508  -7.6992  -5.5838   0.00    0.0   -0.03865    0.00432   -0.07062   0.13877  0.33596  0.65249  0.15834 -0.39572 -0.22268
2025/01/17 08:56:47.000   31.495879535  120.270056270   -10.0885   5  13   3.1169   7.8672  15.9603   3.4514  -7.7004  -5.5864   0.00    0.0   -0.04260   -0.02025    0.15373   0.13880  0.33600  0.65258  0.15840 -0.39578 -0.22280
2025/01/17 08:56:49.000   31.495875558  120.270057016   -10.8717   5  13   3.1184   7.8672  15.9667   3.4526  -7.7027  -5.5916   0.00    0.0   -0.03102   -0.05064    0.13666   0.13887  0.33606  0.65278  0.15853 -0.39590 -0.22305
2025/01/17 08:56:51.000   31.495881121  120.270066171    -9.9506   5  13   3.1199   7.8673  15.9731   3.4538  -7.7050  -5.5968   0.00    0.0    0.03798    0.11968   -0.40719   0.13895  0.33612  0.65298  0.15865 -0.39601 -0.22329
2025/01/17 08:56:52.000   31.495886407  120.270082313   -12.0970   5  13   3.1206   7.8673  15.9763   3.4545  -7.7062  -5.5994   0.00    0.0   -0.04798   -0.06591   -0.13112   0.13898  0.33615  0.65308  0.15871 -0.39607 -0.22342
2025/01/17 08:56:53.000   31.495883701  120.270064276   -11.1992   5  13   3.1214   7.8673  15.9795   3.4551  -7.7074  -5.6020   0.00    0.0   -0.02015   -0.05679   -0.03305   0.13902  0.33618  0.65318  0.15878 -0.39613 -0.22354
2025/01/17 08:56:54.000   31.495888211  120.270064842   -12.6380   5  13   3.1221   7.8673  15.9827   3.4557  -7.7085  -5.6046   0.00    0.0    0.01446    0.00555   -0.06253   0.13905  0.33621  0.65328  0.15884 -0.39619 -0.22366
2025/01/17 08:56:55.000   31.495890314  120.270079950   -13.4841   5  13   3.1228   7.8674  15.9859   3.4563  -7.7097  -5.6072   0.00    0.0    0.06791    0.12850   -0.17812   0.13909  0.33624  0.65338  0.15890 -0.39625 -0.22379
2025/01/17 08:56:56.000   31.495887571  120.270081338   -13.0948   5  13   3.1236   7.8674  15.9891   3.4569  -7.7109  -5.6098   0.00    0.0    0.08438    0.47192   -0.43072   0.13913  0.33627  0.65348  0.15896 -0.39631 -0.22391
2025/01/17 08:56:57.000   31.495895331  120.270101052   -17.3824   5  13   3.1243   7.8674  15.9923   3.4576  -7.7120  -5.6124   0.00    0.0    0.04087    0.01992   -0.22843   0.13916  0.33630  0.65358  0.15902 -0.39636 -0.22403
2025/01/17 08:56:58.000   31.495887304  120.270086921   -12.3689   5  13   3.1251   7.8674  15.9955   3.4582  -7.7132  -5.6150   0.00    0.0    0.06242    0.19936   -0.22532   0.13920  0.33634  0.65368  0.15909 -0.39642 -0.22415
2025/01/17 08:56:59.000   31.495894431  120.270097421   -16.9136   5  13   3.1258   7.8675  15.9987   3.4588  -7.7144  -5.6176   0.00    0.0   -0.00219   -0.07651   -0.03616   0.13923  0.33637  0.65378  0.15915 -0.39648 -0.22428
2025/01/17 08:57:01.000   31.495828537  120.269927893    25.5681   5  12   3.9069   9.7345  21.1285   5.0394 -11.7736  -7.9947   0.00    0.0    0.01563    0.08076   -0.04224   0.14703  0.38902  0.69933  0.18589 -0.45352 -0.24913
2025/01/17 08:57:02.000   31.495830394  120.269907847    23.2877   5  12   3.9087   9.7359  21.1354   5.0416 -11.7774  -7.9994   0.00    0.0   -0.01313    0.16805    0.06868   0.14708  0.38907  0.69945  0.18597 -0.45360 -0.24926
2025/01/17 08:57:03.000   31.495833638  120.269855645    17.3718   5  12   3.9106   9.7372  21.1423   5.0438 -11.7811  -8.0041   0.00    0.0   -0.10577    0.86388    1.05567   0.14713  0.38912  0.69957  0.18606 -0.45368 -0.24940
2025/01/17 08:57:10.000   31.495839616  120.269781532    13.5063   5  11   3.9267  10.7068  21.3894   4.9912 -11.2490  -8.0646   0.00    0.0    0.00094   -0.03694    0.03440   0.14995  0.40880  0.72901  0.17734 -0.42570 -0.26113
2025/01/17 08:57:11.000   31.495840989  120.269784717    12.4666   5  11   3.9286  10.7081  21.3962   4.9932 -11.2530  -8.0693   0.00    0.0   -0.00830   -0.05921    0.01395   0.15001  0.40884  0.72915  0.17741 -0.42578 -0.26128
2025/01/17 08:57:12.000   31.495841221  120.269789520    10.9979   5  11   3.9306  10.7093  21.4031   4.9953 -11.2570  -8.0741   0.00    0.0    0.02575    0.37219   -0.08098   0.15006  0.40888  0.72928  0.17749 -0.42586 -0.26143
2025/01/17 08:57:13.000   31.495840754  120.269774488    11.8477   5  11   3.9325  10.7106  21.4100   4.9973 -11.2610  -8.0788   0.00    0.0   -0.02237    0.23611    0.07278   0.15012  0.40892  0.72941  0.17756 -0.42595 -0.26158
2025/01/17 08:57:14.000   31.495841516  120.269775397    11.7526   5  11   3.9344  10.7118  21.4169   4.9993 -11.2650  -8.0836   0.00    0.0    0.05175   -0.21792   -0.00367   0.15017  0.40896  0.72954  0.17764 -0.42603 -0.26173
2025/01/17 08:57:15.000   31.495842487  120.269786937    10.8711   5  11   3.9363  10.7131  21.4238   5.0013 -11.2690  -8.0883   0.00    0.0   -0.05116   -0.13242    0.12257   0.15022  0.40900  0.72967  0.17771 -0.42612 -0.26188
2025/01/17 08:57:16.000   31.495841950  120.269780152    11.8060   5  11   3.9382  10.7144  21.4307   5.0033 -11.2730  -8.0931   0.00    0.0   -0.00129    0.28790    0.12214   0.15028  0.40904  0.72980  0.17778 -0.42620 -0.26203
2025/01/17 08:57:17.000   31.495844432  120.269775206    10.6673   5  11   3.9401  10.7156  21.4375   5.0054 -11.2771  -8.0978   0.00    0.0    0.00664    0.10240   -0.02932   0.15033  0.40908  0.72993  0.17786 -0.42628 -0.26218
2025/01/17 08:57:19.000   31.495847539  120.269770442     9.5635   5  11   3.9439  10.7181  21.4513   5.0094 -11.2851  -8.1074   0.00    0.0   -0.01806    0.19564   -0.03221   0.15044  0.40916  0.73020  0.17801 -0.42645 -0.26248
2025/01/17 08:57:20.000   31.495848626  120.269767630     8.4222   5  11   3.9458  10.7194  21.4582   5.0115 -11.2891  -8.1121   0.00    0.0    0.01732   -0.04944   -0.14759   0.15049  0.40920  0.73033  0.17808 -0.42654 -0.26263
2025/01/17 08:57:23.000   31.495847107  120.269760823    10.1917   5  11   3.9516  10.7232  21.4789   5.0176 -11.3012  -8.1264   0.00    0.0    0.00995    0.24495    0.05233   0.15066  0.40932  0.73072  0.17831 -0.42679 -0.26308
2025/01/17 08:57:24.000   31.495849022  120.269754093     9.2894   5  11   3.9535  10.7244  21.4858   5.0196 -11.3053  -8.1312   0.00    0.0   -0.00083    0.10299    0.02621   0.15071  0.40936  0.73085  0.17838 -0.42688 -0.26323
2025/01/17 08:57:25.000   31.495848480  120.269755922     8.5054   5  11   3.9555  10.7257  21.4927   5.0217 -11.3093  -8.1360   0.00    0.0   -0.00263   -0.11592   -0.11992   0.15077  0.40940  0.73099  0.17846 -0.42696 -0.26338
2025/01/17 08:57:26.000   31.495846424  120.269756167     8.9346   5  11   3.9574  10.7270  21.4996   5.0237 -11.3133  -8.1407   0.00    0.0    0.03185    0.11762   -0.28588   0.15082  0.40944  0.73112  0.17853 -0.42704 -0.26353
2025/01/17 08:57:29.000   31.495838358  120.269941169    25.0097   5  12   3.9599   9.7734  21.3232   5.1006 -11.8804  -8.1261   0.00    0.0    0.01693   -0.07777   -0.09588   0.14838  0.39046  0.70268  0.18817 -0.45577 -0.25299
2025/01/17 08:57:31.000   31.495834876  120.269880828    23.8541   5  12   3.9637   9.7762  21.3372   5.1050 -11.8881  -8.1356   0.00    0.0   -0.00839   -0.10967   -0.04203   0.14848  0.39056  0.70292  0.18833 -0.45593 -0.25327
2025/01/17 08:57:33.000   31.495893642  120.270040751   -15.5251   5  13   3.1517   7.8686  16.1072   3.4803  -7.7545  -5.7064   0.00    0.0    0.01630   -0.05664   -0.10053   0.14048  0.33743  0.65719  0.16127 -0.39849 -0.22845
